Zone Name;Code Alpha;All ranges;Zip code from;Zip code to;;;Zip code from;Zip code to;;;;;;;1;0000
ZONE 2 - KITI;LT;0;1;1;;;LT-00001;LT-00001
ZONE 2 - KITI;LT;0;3;5;;;LT-00003;LT-00003
ZONE 2 - KITI;LT;0;6;6;;;LT-00006;LT-00006
ZONE 2 - KITI;LT;0;7;9;;;LT-00007;LT-00007
ZONE 2 - KITI;LT;0;10;90;;;LT-00010;LT-00010
ZONE 2 - KITI;LT;0;91;99;;;LT-00091;LT-00091
ZONE 3 - VISKAS;LT;0;100;100;;;LT-00100;LT-00100
ZONE 2 - KITI;LT;0;101;170;;;LT-00101;LT-00101
ZONE 3 - VISKAS;LT;0;171;173;;;LT-00171;LT-00171
ZONE 2 - KITI;LT;0;174;190;;;LT-00174;LT-00174
ZONE 2 - KITI;LT;0;191;194;;;LT-00191;LT-00191
ZONE 2 - KITI;LT;0;195;195;;;LT-00195;LT-00195
ZONE 2 - KITI;LT;0;196;299;;;LT-00196;LT-00196
ZONE 2 - KITI;LT;0;300;326;;;LT-00300;LT-00300
ZONE 3 - VISKAS;LT;0;327;1000;;;LT-00327;LT-00327
ZONE 1 - VILNIUS;LT;0;1001;1018;;;LT-01001;LT-01001
ZONE 1 - VILNIUS;LT;0;1021;1021;;;LT-01021;LT-01021
ZONE 1 - KITI;LT;0;1022;1024;;;LT-01022;LT-01022
ZONE 1 - VILNIUS;LT;0;1025;1026;;;LT-01025;LT-01025
ZONE 1 - KITI;LT;0;1027;1027;;;LT-01027;LT-01027
ZONE 1 - VILNIUS;LT;0;1028;1028;;;LT-01028;LT-01028
ZONE 1 - KITI;LT;0;1029;1030;;;LT-01029;LT-01029
ZONE 1 - VILNIUS;LT;0;1031;1031;;;LT-01031;LT-01031
ZONE 1 - KITI;LT;0;1032;1033;;;LT-01032;LT-01032
ZONE 1 - VILNIUS;LT;0;1034;1034;;;LT-01034;LT-01034
ZONE 1 - KITI;LT;0;1035;1045;;;LT-01035;LT-01035
ZONE 1 - VILNIUS;LT;0;1046;1046;;;LT-01046;LT-01046
ZONE 1 - KITI;LT;0;1047;1099;;;LT-01047;LT-01047
ZONE 1 - VILNIUS;LT;0;1100;1144;;;LT-01100;LT-01100
ZONE 1 - KITI;LT;0;1145;1199;;;LT-01145;LT-01145
ZONE 1 - VILNIUS;LT;0;1200;1282;;;LT-01200;LT-01200
ZONE 1 - KITI;LT;0;1283;1299;;;LT-01283;LT-01283
ZONE 1 - VILNIUS;LT;0;1300;1314;;;LT-01300;LT-01300
ZONE 1 - KITI;LT;0;1315;1399;;;LT-01315;LT-01315
ZONE 1 - VILNIUS;LT;0;1400;1402;;;LT-01400;LT-01400
ZONE 1 - KITI;LT;0;1403;1499;;;LT-01403;LT-01403
ZONE 1 - VILNIUS;LT;0;1500;1517;;;LT-01500;LT-01500
ZONE 1 - KITI;LT;0;1518;2000;;;LT-01518;LT-01518
ZONE 1 - VILNIUS;LT;0;2001;2005;;;LT-02001;LT-02001
ZONE 1 - KITI;LT;0;2006;2006;;;LT-02006;LT-02006
ZONE 1 - VILNIUS;LT;0;2007;2009;;;LT-02007;LT-02007
ZONE 1 - KITI;LT;0;2010;2010;;;LT-02010;LT-02010
ZONE 1 - VILNIUS;LT;0;2011;2013;;;LT-02011;LT-02011
ZONE 1 - KITI;LT;0;2014;2016;;;LT-02014;LT-02014
ZONE 1 - VILNIUS;LT;0;2017;2017;;;LT-02017;LT-02017
ZONE 1 - KITI;LT;0;2018;2020;;;LT-02018;LT-02018
ZONE 1 - VILNIUS;LT;0;2021;2021;;;LT-02021;LT-02021
ZONE 1 - KITI;LT;0;2022;2024;;;LT-02022;LT-02022
ZONE 1 - VILNIUS;LT;0;2025;2026;;;LT-02025;LT-02025
ZONE 1 - KITI;LT;0;2027;2028;;;LT-02027;LT-02027
ZONE 1 - VILNIUS;LT;0;2029;2030;;;LT-02029;LT-02029
ZONE 1 - KITI;LT;0;2031;2031;;;LT-02031;LT-02031
ZONE 1 - VILNIUS;LT;0;2032;2122;;;LT-02032;LT-02032
ZONE 1 - KITI;LT;0;2123;2150;;;LT-02123;LT-02123
ZONE 1 - VILNIUS;LT;0;2151;2195;;;LT-02151;LT-02151
ZONE 1 - KITI;LT;0;2196;2199;;;LT-02196;LT-02196
ZONE 1 - VILNIUS;LT;0;2200;2225;;;LT-02200;LT-02200
ZONE 1 - KITI;LT;0;2226;2230;;;LT-02226;LT-02226
ZONE 1 - VILNIUS;LT;0;2231;2235;;;LT-02231;LT-02231
ZONE 1 - VILNIUS;LT;0;2236;2236;;;LT-02236;LT-02236
ZONE 3 - VISKAS;LT;0;2237;2237;;;LT-02237;LT-02237
ZONE 1 - KITI;LT;0;2238;2240;;;LT-02238;LT-02238
ZONE 1 - VILNIUS;LT;0;2241;2246;;;LT-02241;LT-02241
ZONE 1 - KITI;LT;0;2247;2299;;;LT-02247;LT-02247
ZONE 1 - VILNIUS;LT;0;2300;2309;;;LT-02300;LT-02300
ZONE 1 - KITI;LT;0;2310;2510;;;LT-02310;LT-02310
ZONE 1 - VILNIUS;LT;0;2511;2512;;;LT-02511;LT-02511
ZONE 1 - KITI;LT;0;2513;3000;;;LT-02513;LT-02513
ZONE 1 - VILNIUS;LT;0;3001;3007;;;LT-03001;LT-03001
ZONE 1 - KITI;LT;0;3008;3010;;;LT-03008;LT-03008
ZONE 1 - VILNIUS;LT;0;3011;3014;;;LT-03011;LT-03011
ZONE 1 - KITI;LT;0;3015;3099;;;LT-03015;LT-03015
ZONE 1 - VILNIUS;LT;0;3100;3198;;;LT-03100;LT-03100
ZONE 1 - KITI;LT;0;3199;3199;;;LT-03199;LT-03199
ZONE 1 - VILNIUS;LT;0;3200;3232;;;LT-03200;LT-03200
ZONE 1 - KITI;LT;0;3233;3499;;;LT-03233;LT-03233
ZONE 1 - VILNIUS;LT;0;3500;3507;;;LT-03500;LT-03500
ZONE 1 - KITI;LT;0;3508;3599;;;LT-03508;LT-03508
ZONE 1 - VILNIUS;LT;0;3600;3610;;;LT-03600;LT-03600
ZONE 1 - KITI;LT;0;3611;4000;;;LT-03611;LT-03611
ZONE 1 - VILNIUS;LT;0;4001;4003;;;LT-04001;LT-04001
ZONE 1 - KITI;LT;0;4004;4006;;;LT-04004;LT-04004
ZONE 1 - VILNIUS;LT;0;4007;4009;;;LT-04007;LT-04007
ZONE 1 - KITI;LT;0;4010;4012;;;LT-04010;LT-04010
ZONE 1 - VILNIUS;LT;0;4013;4019;;;LT-04013;LT-04013
ZONE 1 - KITI;LT;0;4020;4099;;;LT-04020;LT-04020
ZONE 1 - VILNIUS;LT;0;4100;4111;;;LT-04100;LT-04100
ZONE 1 - VILNIUS;LT;0;4112;4112;;;LT-04112;LT-04112
ZONE 1 - VILNIUS;LT;0;4113;4140;;;LT-04113;LT-04113
ZONE 1 - KITI;LT;0;4141;4199;;;LT-04141;LT-04141
ZONE 1 - VILNIUS;LT;0;4200;4235;;;LT-04200;LT-04200
ZONE 1 - KITI;LT;0;4236;4299;;;LT-04236;LT-04236
ZONE 1 - VILNIUS;LT;0;4300;4352;;;LT-04300;LT-04300
ZONE 1 - KITI;LT;0;4353;4539;;;LT-04353;LT-04353
ZONE 1 - VILNIUS;LT;0;4540;4540;;;LT-04540;LT-04540
ZONE 1 - KITI;LT;0;4541;5000;;;LT-04541;LT-04541
ZONE 1 - VILNIUS;LT;0;5001;5004;;;LT-05001;LT-05001
ZONE 1 - KITI;LT;0;5005;5008;;;LT-05005;LT-05005
ZONE 1 - VILNIUS;LT;0;5009;5011;;;LT-05009;LT-05009
ZONE 1 - KITI;LT;0;5012;5099;;;LT-05012;LT-05012
ZONE 1 - VILNIUS;LT;0;5100;5132;;;LT-05100;LT-05100
ZONE 1 - KITI;LT;0;5133;5199;;;LT-05133;LT-05133
ZONE 1 - VILNIUS;LT;0;5200;5273;;;LT-05200;LT-05200
ZONE 1 - KITI;LT;0;5274;6000;;;LT-05274;LT-05274
ZONE 1 - VILNIUS;LT;0;6001;6009;;;LT-06001;LT-06001
ZONE 1 - KITI;LT;0;6010;6099;;;LT-06010;LT-06010
ZONE 1 - VILNIUS;LT;0;6100;6155;;;LT-06100;LT-06100
ZONE 1 - KITI;LT;0;6156;6199;;;LT-06156;LT-06156
ZONE 1 - VILNIUS;LT;0;6200;6289;;;LT-06200;LT-06200
ZONE 1 - KITI;LT;0;6290;6291;;;LT-06290;LT-06290
ZONE 3 - VISKAS;LT;0;6292;6292;;;LT-06292;LT-06292
ZONE 1 - VILNIUS;LT;0;6293;6299;;;LT-06293;LT-06293
ZONE 1 - VILNIUS;LT;0;6300;6334;;;LT-06300;LT-06300
ZONE 1 - KITI;LT;0;6335;7000;;;LT-06335;LT-06335
ZONE 1 - VILNIUS;LT;0;7001;7008;;;LT-07001;LT-07001
ZONE 1 - KITI;LT;0;7009;7015;;;LT-07009;LT-07009
ZONE 1 - VILNIUS;LT;0;7016;7016;;;LT-07016;LT-07016
ZONE 1 - KITI;LT;0;7017;7099;;;LT-07017;LT-07017
ZONE 1 - VILNIUS;LT;0;7100;7196;;;LT-07100;LT-07100
ZONE 1 - KITI;LT;0;7197;8000;;;LT-07197;LT-07197
ZONE 1 - VILNIUS;LT;0;8001;8009;;;LT-08001;LT-08001
ZONE 1 - KITI;LT;0;8010;8012;;;LT-08010;LT-08010
ZONE 1 - VILNIUS;LT;0;8013;8020;;;LT-08013;LT-08013
ZONE 1 - KITI;LT;0;8021;8099;;;LT-08021;LT-08021
ZONE 1 - VILNIUS;LT;0;8100;8129;;;LT-08100;LT-08100
ZONE 1 - KITI;LT;0;8130;8199;;;LT-08130;LT-08130
ZONE 1 - VILNIUS;LT;0;8200;8298;;;LT-08200;LT-08200
ZONE 1 - KITI;LT;0;8299;8299;;;LT-08299;LT-08299
ZONE 1 - VILNIUS;LT;0;8300;8346;;;LT-08300;LT-08300
ZONE 1 - KITI;LT;0;8347;8399;;;LT-08347;LT-08347
ZONE 1 - VILNIUS;LT;0;8400;8459;;;LT-08400;LT-08400
ZONE 1 - KITI;LT;0;8460;8499;;;LT-08460;LT-08460
ZONE 1 - VILNIUS;LT;0;8500;8501;;;LT-08500;LT-08500
ZONE 1 - KITI;LT;0;8502;8530;;;LT-08502;LT-08502
ZONE 1 - VILNIUS;LT;0;8531;8531;;;LT-08531;LT-08531
ZONE 1 - KITI;LT;0;8532;8659;;;LT-08532;LT-08532
ZONE 1 - VILNIUS;LT;0;8660;8663;;;LT-08660;LT-08660
ZONE 1 - KITI;LT;0;8664;9000;;;LT-08664;LT-08664
ZONE 1 - VILNIUS;LT;0;9001;9021;;;LT-09001;LT-09001
ZONE 1 - KITI;LT;0;9022;9099;;;LT-09022;LT-09022
ZONE 1 - VILNIUS;LT;0;9100;9133;;;LT-09100;LT-09100
ZONE 1 - KITI;LT;0;9134;9199;;;LT-09134;LT-09134
ZONE 1 - VILNIUS;LT;0;9200;9238;;;LT-09200;LT-09200
ZONE 1 - KITI;LT;0;9239;9299;;;LT-09239;LT-09239
ZONE 1 - VILNIUS;LT;0;9300;9322;;;LT-09300;LT-09300
ZONE 1 - KITI;LT;0;9323;9599;;;LT-09323;LT-09323
ZONE 1 - VILNIUS;LT;0;9600;9601;;;LT-09600;LT-09600
ZONE 1 - KITI;LT;0;9602;10000;;;LT-09602;LT-09602
ZONE 1 - VILNIUS;LT;0;10001;10015;;;LT-10001;LT-10001
ZONE 1 - KITI;LT;0;10016;10099;;;LT-10016;LT-10016
ZONE 1 - VILNIUS;LT;0;10100;10115;;;LT-10100;LT-10100
ZONE 1 - KITI;LT;0;10116;10149;;;LT-10116;LT-10116
ZONE 1 - VILNIUS;LT;0;10150;10156;;;LT-10150;LT-10150
ZONE 1 - KITI;LT;0;10157;10199;;;LT-10157;LT-10157
ZONE 1 - VILNIUS;LT;0;10200;10259;;;LT-10200;LT-10200
ZONE 1 - KITI;LT;0;10260;10299;;;LT-10260;LT-10260
ZONE 1 - VILNIUS;LT;0;10300;10326;;;LT-10300;LT-10300
ZONE 1 - KITI;LT;0;10327;11000;;;LT-10327;LT-10327
ZONE 1 - VILNIUS;LT;0;11001;11013;;;LT-11001;LT-11001
ZONE 1 - KITI;LT;0;11014;11099;;;LT-11014;LT-11014
ZONE 1 - VILNIUS;LT;0;11100;11132;;;LT-11100;LT-11100
ZONE 1 - KITI;LT;0;11133;11199;;;LT-11133;LT-11133
ZONE 1 - VILNIUS;LT;0;11200;11235;;;LT-11200;LT-11200
ZONE 3 - VISKAS;LT;0;11236;11237;;;LT-11236;LT-11236
ZONE 1 - VILNIUS;LT;0;11238;11239;;;LT-11238;LT-11238
ZONE 1 - KITI;LT;0;11240;11299;;;LT-11240;LT-11240
ZONE 1 - VILNIUS;LT;0;11300;11324;;;LT-11300;LT-11300
ZONE 1 - KITI;LT;0;11325;11340;;;LT-11325;LT-11325
ZONE 1 - VILNIUS;LT;0;11341;11351;;;LT-11341;LT-11341
ZONE 1 - VILNIUS;LT;0;11352;11559;;;LT-11352;LT-11352
ZONE 1 - VILNIUS;LT;0;11560;11560;;;LT-11560;LT-11560
ZONE 1 - KITI;LT;0;11561;11599;;;LT-11561;LT-11561
ZONE 3 - VISKAS;LT;0;11600;12099;;;LT-11600;LT-11600
ZONE 1 - VILNIUS;LT;0;12100;12145;;;LT-12100;LT-12100
ZONE 3 - VISKAS;LT;0;12146;12185;;;LT-12146;LT-12146
ZONE 1 - VILNIUS;LT;0;12186;12189;;;LT-12186;LT-12186
ZONE 3 - VISKAS;LT;0;12190;12204;;;LT-12190;LT-12190
ZONE 1 - VILNIUS;LT;0;12205;12205;;;LT-12205;LT-12205
ZONE 3 - VISKAS;LT;0;12206;13000;;;LT-12206;LT-12206
ZONE 3 - VISKAS;LT;0;13001;13241;;;LT-13001;LT-13001
ZONE 1 - VILNIUS;LT;0;13242;13242;;;LT-13242;LT-13242
ZONE 3 - VISKAS;LT;0;13243;13261;;;LT-13243;LT-13243
ZONE 1 - VILNIUS;LT;0;13262;13263;;;LT-13262;LT-13262
ZONE 3 - VISKAS;LT;0;13264;13269;;;LT-13264;LT-13264
ZONE 1 - VILNIUS;LT;0;13270;13273;;;LT-13270;LT-13270
ZONE 3 - VISKAS;LT;0;13274;13276;;;LT-13274;LT-13274
ZONE 1 - VILNIUS;LT;0;13277;13278;;;LT-13277;LT-13277
ZONE 3 - VISKAS;LT;0;13279;13281;;;LT-13279;LT-13279
ZONE 1 - VILNIUS;LT;0;13282;13282;;;LT-13282;LT-13282
ZONE 3 - VISKAS;LT;0;13283;14186;;;LT-13283;LT-13283
ZONE 1 - VILNIUS;LT;0;14187;14190;;;LT-14187;LT-14187
ZONE 3 - VISKAS;LT;0;14191;14192;;;LT-14191;LT-14191
ZONE 1 - VILNIUS;LT;0;14193;14193;;;LT-14193;LT-14193
ZONE 3 - VISKAS;LT;0;14194;14198;;;LT-14194;LT-14194
ZONE 3 - VISKAS;LT;0;14199;14199;;;LT-14199;LT-14199
ZONE 3 - VISKAS;LT;0;14200;14258;;;LT-14200;LT-14200
ZONE 1 - VILNIUS;LT;0;14259;14259;;;LT-14259;LT-14259
ZONE 3 - VISKAS;LT;0;14260;14266;;;LT-14260;LT-14260
ZONE 1 - VILNIUS;LT;0;14267;14270;;;LT-14267;LT-14267
ZONE 3 - VISKAS;LT;0;14271;14280;;;LT-14271;LT-14271
ZONE 1 - VILNIUS;LT;0;14281;14290;;;LT-14281;LT-14281
ZONE 3 - VISKAS;LT;0;14291;17000;;;LT-14291;LT-14291
ZONE 2 - KITI;LT;0;17001;17001;;;LT-17001;LT-17001
ZONE 3 - VISKAS;LT;0;17002;17047;;;LT-17002;LT-17002
ZONE 3 - VISKAS;LT;0;17048;17099;;;LT-17048;LT-17048
ZONE 2 - KITI;LT;0;17100;17117;;;LT-17100;LT-17100
ZONE 3 - VISKAS;LT;0;17118;17119;;;LT-17118;LT-17118
ZONE 2 - KITI;LT;0;17120;17120;;;LT-17120;LT-17120
ZONE 2 - KITI;LT;0;17121;17121;;;LT-17121;LT-17121
ZONE 3 - VISKAS;LT;0;17122;17123;;;LT-17122;LT-17122
ZONE 2 - KITI;LT;0;17124;17126;;;LT-17124;LT-17124
ZONE 3 - VISKAS;LT;0;17127;17294;;;LT-17127;LT-17127
ZONE 3 - VISKAS;LT;0;17295;18000;;;LT-17295;LT-17295
ZONE 2 - KITI;LT;0;18001;18001;;;LT-18001;LT-18001
ZONE 3 - VISKAS;LT;0;18002;18108;;;LT-18002;LT-18002
ZONE 2 - KITI;LT;0;18109;18118;;;LT-18109;LT-18109
ZONE 3 - VISKAS;LT;0;18119;18122;;;LT-18119;LT-18119
ZONE 2 - KITI;LT;0;18123;18127;;;LT-18123;LT-18123
ZONE 3 - VISKAS;LT;0;18128;18291;;;LT-18128;LT-18128
ZONE 3 - VISKAS;LT;0;18292;19000;;;LT-18292;LT-18292
ZONE 2 - KITI;LT;0;19001;19001;;;LT-19001;LT-19001
ZONE 3 - VISKAS;LT;0;19002;19106;;;LT-19002;LT-19002
ZONE 2 - KITI;LT;0;19107;19127;;;LT-19107;LT-19107
ZONE 3 - VISKAS;LT;0;19128;19235;;;LT-19128;LT-19128
ZONE 3 - VISKAS;LT;0;19236;20000;;;LT-19236;LT-19236
ZONE 2 - KITI;LT;0;20001;20001;;;LT-20001;LT-20001
ZONE 3 - VISKAS;LT;0;20002;20003;;;LT-20002;LT-20002
ZONE 2 - KITI;LT;0;20004;20005;;;LT-20004;LT-20004
ZONE 2 - KITI;LT;0;20006;20012;;;LT-20006;LT-20006
ZONE 3 - VISKAS;LT;0;20013;20014;;;LT-20013;LT-20013
ZONE 3 - VISKAS;LT;0;20015;20102;;;LT-20015;LT-20015
ZONE 2 - UKMERGĖ;LT;0;20103;20103;;;LT-20103;LT-20103
ZONE 2 - KITI;LT;0;20104;20104;;;LT-20104;LT-20104
ZONE 2 - UKMERGĖ;LT;0;20105;20115;;;LT-20105;LT-20105
ZONE 3 - VISKAS;LT;0;20116;20117;;;LT-20116;LT-20116
ZONE 2 - UKMERGĖ;LT;0;20118;20123;;;LT-20118;LT-20118
ZONE 3 - VISKAS;LT;0;20124;20125;;;LT-20124;LT-20124
ZONE 2 - UKMERGĖ;LT;0;20126;20134;;;LT-20126;LT-20126
ZONE 2 - KITI;LT;0;20135;20135;;;LT-20135;LT-20135
ZONE 2 - UKMERGĖ;LT;0;20136;20163;;;LT-20136;LT-20136
ZONE 2 - KITI;LT;0;20164;20164;;;LT-20164;LT-20164
ZONE 2 - UKMERGĖ;LT;0;20165;20184;;;LT-20165;LT-20165
ZONE 3 - VISKAS;LT;0;20185;20186;;;LT-20185;LT-20185
ZONE 2 - KITI;LT;0;20187;20190;;;LT-20187;LT-20187
ZONE 2 - UKMERGĖ;LT;0;20191;20191;;;LT-20191;LT-20191
ZONE 3 - VISKAS;LT;0;20192;20192;;;LT-20192;LT-20192
ZONE 2 - UKMERGĖ;LT;0;20193;20194;;;LT-20193;LT-20193
ZONE 3 - VISKAS;LT;0;20195;20195;;;LT-20195;LT-20195
ZONE 3 - VISKAS;LT;0;20196;20199;;;LT-20196;LT-20196
ZONE 3 - VISKAS;LT;0;20200;20389;;;LT-20200;LT-20200
ZONE 3 - VISKAS;LT;0;20390;21000;;;LT-20390;LT-20390
ZONE 2 - KITI;LT;0;21001;21001;;;LT-21001;LT-21001
ZONE 3 - VISKAS;LT;0;21002;21103;;;LT-21002;LT-21002
ZONE 2 - KITI;LT;0;21104;21107;;;LT-21104;LT-21104
ZONE 3 - VISKAS;LT;0;21108;21109;;;LT-21108;LT-21108
ZONE 2 - KITI;LT;0;21110;21118;;;LT-21110;LT-21110
ZONE 2 - KITI;LT;0;21119;21119;;;LT-21119;LT-21119
ZONE 3 - VISKAS;LT;0;21120;21122;;;LT-21120;LT-21120
ZONE 3 - VISKAS;LT;0;21123;21123;;;LT-21123;LT-21123
ZONE 3 - VISKAS;LT;0;21124;21141;;;LT-21124;LT-21124
ZONE 3 - VISKAS;LT;0;21142;25124;;;LT-21142;LT-21142
ZONE 1 - VILNIUS;LT;0;25125;25127;;;LT-25125;LT-25125
ZONE 3 - VISKAS;LT;0;25128;25131;;;LT-25128;LT-25128
ZONE 1 - VILNIUS;LT;0;25132;25133;;;LT-25132;LT-25132
ZONE 3 - VISKAS;LT;0;25134;26000;;;LT-25134;LT-25134
ZONE 2 - KITI;LT;0;26001;26001;;;LT-26001;LT-26001
ZONE 2 - KITI;LT;0;26002;26002;;;LT-26002;LT-26002
ZONE 3 - VISKAS;LT;0;26003;26099;;;LT-26003;LT-26003
ZONE 2 - KITI;LT;0;26100;26129;;;LT-26100;LT-26100
ZONE 3 - VISKAS;LT;0;26130;26131;;;LT-26130;LT-26130
ZONE 3 - VISKAS;LT;0;26132;26996;;;LT-26132;LT-26132
ZONE 1 - KITI;LT;0;26997;26998;;;LT-26997;LT-26997
ZONE 1 - KITI;LT;0;26999;27000;;;LT-26999;LT-26999
ZONE 1 - VILNIUS;LT;0;27001;27199;;;LT-27001;LT-27001
ZONE 3 - VISKAS;LT;0;27200;27200;;;LT-27200;LT-27200
ZONE 3 - VISKAS;LT;0;27201;28000;;;LT-27201;LT-27201
ZONE 1 - UTENA;LT;0;28001;28006;;;LT-28001;LT-28001
ZONE 1 - KITI;LT;0;28007;28008;;;LT-28007;LT-28007
ZONE 3 - VISKAS;LT;0;28009;28126;;;LT-28009;LT-28009
ZONE 3 - VISKAS;LT;0;28127;28131;;;LT-28127;LT-28127
ZONE 1 - UTENA;LT;0;28132;28249;;;LT-28132;LT-28132
ZONE 1 - KITI;LT;0;28250;28299;;;LT-28250;LT-28250
ZONE 3 - VISKAS;LT;0;28300;28438;;;LT-28300;LT-28300
ZONE 3 - VISKAS;LT;0;28439;28499;;;LT-28439;LT-28439
ZONE 1 - UTENA;LT;0;28500;28503;;;LT-28500;LT-28500
ZONE 3 - VISKAS;LT;0;28504;29000;;;LT-28504;LT-28504
ZONE 2 - KITI;LT;0;29001;29001;;;LT-29001;LT-29001
ZONE 3 - VISKAS;LT;0;29002;29054;;;LT-29002;LT-29002
ZONE 3 - VISKAS;LT;0;29055;29099;;;LT-29055;LT-29055
ZONE 2 - KITI;LT;0;29100;29152;;;LT-29100;LT-29100
ZONE 3 - VISKAS;LT;0;29153;29374;;;LT-29153;LT-29153
ZONE 3 - VISKAS;LT;0;29375;30000;;;LT-29375;LT-29375
ZONE 2 - KITI;LT;0;30001;30001;;;LT-30001;LT-30001
ZONE 3 - VISKAS;LT;0;30002;30054;;;LT-30002;LT-30002
ZONE 3 - VISKAS;LT;0;30055;30099;;;LT-30055;LT-30055
ZONE 2 - KITI;LT;0;30100;30132;;;LT-30100;LT-30100
ZONE 3 - VISKAS;LT;0;30133;30133;;;LT-30133;LT-30133
ZONE 2 - KITI;LT;0;30134;30136;;;LT-30134;LT-30134
ZONE 3 - VISKAS;LT;0;30137;30137;;;LT-30137;LT-30137
ZONE 2 - KITI;LT;0;30138;30138;;;LT-30138;LT-30138
ZONE 3 - VISKAS;LT;0;30139;30141;;;LT-30139;LT-30139
ZONE 3 - VISKAS;LT;0;30142;31000;;;LT-30142;LT-30142
ZONE 2 - KITI;LT;0;31001;31001;;;LT-31001;LT-31001
ZONE 2 - KITI;LT;0;31002;31006;;;LT-31002;LT-31002
ZONE 2 - KITI;LT;0;31007;31007;;;LT-31007;LT-31007
ZONE 2 - KITI;LT;0;31008;31099;;;LT-31008;LT-31008
ZONE 2 - KITI;LT;0;31100;31146;;;LT-31100;LT-31100
ZONE 2 - KITI;LT;0;31147;31234;;;LT-31147;LT-31147
ZONE 3 - VISKAS;LT;0;31235;31499;;;LT-31235;LT-31235
ZONE 3 - VISKAS;LT;0;31500;31500;;;LT-31500;LT-31500
ZONE 3 - VISKAS;LT;0;31501;32000;;;LT-31501;LT-31501
ZONE 2 - KITI;LT;0;32001;32003;;;LT-32001;LT-32001
ZONE 3 - VISKAS;LT;0;32004;32010;;;LT-32004;LT-32004
ZONE 3 - VISKAS;LT;0;32011;32012;;;LT-32011;LT-32011
ZONE 2 - KITI;LT;0;32013;32013;;;LT-32013;LT-32013
ZONE 3 - VISKAS;LT;0;32014;32015;;;LT-32014;LT-32014
ZONE 3 - VISKAS;LT;0;32016;32105;;;LT-32016;LT-32016
ZONE 2 - KITI;LT;0;32106;32135;;;LT-32106;LT-32106
ZONE 3 - VISKAS;LT;0;32136;32405;;;LT-32136;LT-32136
ZONE 3 - VISKAS;LT;0;32406;33000;;;LT-32406;LT-32406
ZONE 2 - KITI;LT;0;33001;33001;;;LT-33001;LT-33001
ZONE 3 - VISKAS;LT;0;33002;33049;;;LT-33002;LT-33002
ZONE 3 - VISKAS;LT;0;33050;33099;;;LT-33050;LT-33050
ZONE 2 - KITI;LT;0;33100;33102;;;LT-33100;LT-33100
ZONE 3 - VISKAS;LT;0;33103;33103;;;LT-33103;LT-33103
ZONE 2 - KITI;LT;0;33104;33133;;;LT-33104;LT-33104
ZONE 3 - VISKAS;LT;0;33134;33134;;;LT-33134;LT-33134
ZONE 2 - KITI;LT;0;33135;33135;;;LT-33135;LT-33135
ZONE 2 - KITI;LT;0;33136;33144;;;LT-33136;LT-33136
ZONE 3 - VISKAS;LT;0;33145;33145;;;LT-33145;LT-33145
ZONE 3 - VISKAS;LT;0;33146;33355;;;LT-33146;LT-33146
ZONE 3 - VISKAS;LT;0;33356;35000;;;LT-33356;LT-33356
ZONE 1 - PANEVĖŽYS;LT;0;35001;35006;;;LT-35001;LT-35001
ZONE 1 - KITI;LT;0;35007;35099;;;LT-35007;LT-35007
ZONE 1 - PANEVĖŽYS;LT;0;35100;35255;;;LT-35100;LT-35100
ZONE 3 - VISKAS;LT;0;35256;35257;;;LT-35256;LT-35256
ZONE 3 - VISKAS;LT;0;35258;35288;;;LT-35258;LT-35258
ZONE 1 - PANEVĖŽYS;LT;0;35289;35291;;;LT-35289;LT-35289
ZONE 3 - VISKAS;LT;0;35292;35499;;;LT-35292;LT-35292
ZONE 1 - PANEVĖŽYS;LT;0;35500;35501;;;LT-35500;LT-35500
ZONE 1 - KITI;LT;0;35502;36000;;;LT-35502;LT-35502
ZONE 1 - PANEVĖŽYS;LT;0;36001;36011;;;LT-36001;LT-36001
ZONE 1 - KITI;LT;0;36012;36099;;;LT-36012;LT-36012
ZONE 1 - PANEVĖŽYS;LT;0;36100;36220;;;LT-36100;LT-36100
ZONE 3 - VISKAS;LT;0;36221;36223;;;LT-36221;LT-36221
ZONE 1 - PANEVĖŽYS;LT;0;36224;36260;;;LT-36224;LT-36224
ZONE 1 - KITI;LT;0;36261;36264;;;LT-36261;LT-36261
ZONE 1 - PANEVĖŽYS;LT;0;36265;36265;;;LT-36265;LT-36265
ZONE 1 - KITI;LT;0;36266;37000;;;LT-36266;LT-36266
ZONE 1 - PANEVĖŽYS;LT;0;37001;37011;;;LT-37001;LT-37001
ZONE 1 - KITI;LT;0;37012;37100;;;LT-37012;LT-37012
ZONE 1 - PANEVĖŽYS;LT;0;37101;37176;;;LT-37101;LT-37101
ZONE 1 - KITI;LT;0;37177;37180;;;LT-37177;LT-37177
ZONE 1 - PANEVĖŽYS;LT;0;37181;37181;;;LT-37181;LT-37181
ZONE 1 - KITI;LT;0;37182;37182;;;LT-37182;LT-37182
ZONE 3 - VISKAS;LT;0;37183;37187;;;LT-37183;LT-37183
ZONE 1 - PANEVĖŽYS;LT;0;37188;37468;;;LT-37188;LT-37188
ZONE 1 - KITI;LT;0;37469;37499;;;LT-37469;LT-37469
ZONE 3 - VISKAS;LT;0;37500;38000;;;LT-37500;LT-37500
ZONE 3 - VISKAS;LT;0;38001;38354;;;LT-38001;LT-38001
ZONE 3 - VISKAS;LT;0;38355;38355;;;LT-38355;LT-38355
ZONE 3 - VISKAS;LT;0;38356;38366;;;LT-38356;LT-38356
ZONE 1 - PANEVĖŽYS;LT;0;38367;38374;;;LT-38367;LT-38367
ZONE 3 - VISKAS;LT;0;38375;38381;;;LT-38375;LT-38375
ZONE 1 - PANEVĖŽYS;LT;0;38382;38412;;;LT-38382;LT-38382
ZONE 3 - VISKAS;LT;0;38413;38475;;;LT-38413;LT-38413
ZONE 3 - VISKAS;LT;0;38476;39000;;;LT-38476;LT-38476
ZONE 2 - KITI;LT;0;39001;39001;;;LT-39001;LT-39001
ZONE 3 - VISKAS;LT;0;39002;39102;;;LT-39002;LT-39002
ZONE 2 - KITI;LT;0;39103;39108;;;LT-39103;LT-39103
ZONE 2 - KITI;LT;0;39109;39110;;;LT-39109;LT-39109
ZONE 3 - VISKAS;LT;0;39111;39113;;;LT-39111;LT-39111
ZONE 2 - KITI;LT;0;39114;39159;;;LT-39114;LT-39114
ZONE 2 - KITI;LT;0;39160;39160;;;LT-39160;LT-39160
ZONE 3 - VISKAS;LT;0;39161;39169;;;LT-39161;LT-39161
ZONE 2 - KITI;LT;0;39170;39170;;;LT-39170;LT-39170
ZONE 2 - KITI;LT;0;39171;39184;;;LT-39171;LT-39171
ZONE 2 - KITI;LT;0;39185;39186;;;LT-39185;LT-39185
ZONE 3 - VISKAS;LT;0;39187;39189;;;LT-39187;LT-39187
ZONE 2 - KITI;LT;0;39190;39190;;;LT-39190;LT-39190
ZONE 3 - VISKAS;LT;0;39191;39474;;;LT-39191;LT-39191
ZONE 3 - VISKAS;LT;0;39475;40000;;;LT-39475;LT-39475
ZONE 2 - KITI;LT;0;40001;40001;;;LT-40001;LT-40001
ZONE 3 - VISKAS;LT;0;40002;40103;;;LT-40002;LT-40002
ZONE 2 - KITI;LT;0;40104;40104;;;LT-40104;LT-40104
ZONE 3 - VISKAS;LT;0;40105;40105;;;LT-40105;LT-40105
ZONE 2 - KITI;LT;0;40106;40107;;;LT-40106;LT-40106
ZONE 2 - KITI;LT;0;40108;40131;;;LT-40108;LT-40108
ZONE 3 - VISKAS;LT;0;40132;40133;;;LT-40132;LT-40132
ZONE 2 - KITI;LT;0;40134;40134;;;LT-40134;LT-40134
ZONE 3 - VISKAS;LT;0;40135;40482;;;LT-40135;LT-40135
ZONE 3 - VISKAS;LT;0;40483;41000;;;LT-40483;LT-40483
ZONE 2 - KITI;LT;0;41001;41001;;;LT-41001;LT-41001
ZONE 3 - VISKAS;LT;0;41002;41108;;;LT-41002;LT-41002
ZONE 2 - KITI;LT;0;41109;41129;;;LT-41109;LT-41109
ZONE 3 - VISKAS;LT;0;41130;41130;;;LT-41130;LT-41130
ZONE 2 - KITI;LT;0;41131;41179;;;LT-41131;LT-41131
ZONE 3 - VISKAS;LT;0;41180;41189;;;LT-41180;LT-41180
ZONE 2 - KITI;LT;0;41190;41190;;;LT-41190;LT-41190
ZONE 3 - VISKAS;LT;0;41191;41482;;;LT-41191;LT-41191
ZONE 3 - VISKAS;LT;0;41483;42000;;;LT-41483;LT-41483
ZONE 2 - KITI;LT;0;42001;42001;;;LT-42001;LT-42001
ZONE 3 - VISKAS;LT;0;42002;42066;;;LT-42002;LT-42002
ZONE 3 - VISKAS;LT;0;42067;42099;;;LT-42067;LT-42067
ZONE 2 - ROKIŠKIS;LT;0;42100;42100;;;LT-42100;LT-42100
ZONE 3 - VISKAS;LT;0;42101;42103;;;LT-42101;LT-42101
ZONE 2 - ROKIŠKIS;LT;0;42104;42105;;;LT-42104;LT-42104
ZONE 2 - KITI;LT;0;42106;42125;;;LT-42106;LT-42106
ZONE 2 - ROKIŠKIS;LT;0;42126;42136;;;LT-42126;LT-42126
ZONE 2 - KITI;LT;0;42137;42138;;;LT-42137;LT-42137
ZONE 2 - ROKIŠKIS;LT;0;42139;42164;;;LT-42139;LT-42139
ZONE 3 - VISKAS;LT;0;42165;42494;;;LT-42165;LT-42165
ZONE 3 - VISKAS;LT;0;42495;44000;;;LT-42495;LT-42495
ZONE 1 - KAUNAS;LT;0;44001;44038;;;LT-44001;LT-44001
ZONE 1 - KITI;LT;0;44039;44099;;;LT-44039;LT-44039
ZONE 3 - VISKAS;LT;0;44100;44101;;;LT-44100;LT-44100
ZONE 1 - KITI;LT;0;44102;44103;;;LT-44102;LT-44102
ZONE 1 - KAUNAS;LT;0;44104;44109;;;LT-44104;LT-44104
ZONE 1 - KITI;LT;0;44110;44130;;;LT-44110;LT-44110
ZONE 1 - KAUNAS;LT;0;44131;45501;;;LT-44131;LT-44131
ZONE 1 - KITI;LT;0;45502;46000;;;LT-45502;LT-45502
ZONE 1 - KAUNAS;LT;0;46001;46006;;;LT-46001;LT-46001
ZONE 1 - KITI;LT;0;46007;46103;;;LT-46007;LT-46007
ZONE 1 - KAUNAS;LT;0;46104;46106;;;LT-46104;LT-46104
ZONE 1 - KITI;LT;0;46107;46112;;;LT-46107;LT-46107
ZONE 1 - KAUNAS;LT;0;46113;46115;;;LT-46113;LT-46113
ZONE 1 - KITI;LT;0;46116;46116;;;LT-46116;LT-46116
ZONE 1 - KAUNAS;LT;0;46117;46119;;;LT-46117;LT-46117
ZONE 1 - KITI;LT;0;46120;46120;;;LT-46120;LT-46120
ZONE 1 - KAUNAS;LT;0;46121;46123;;;LT-46121;LT-46121
ZONE 1 - KITI;LT;0;46124;46125;;;LT-46124;LT-46124
ZONE 1 - KAUNAS;LT;0;46126;46130;;;LT-46126;LT-46126
ZONE 1 - KITI;LT;0;46131;46135;;;LT-46131;LT-46131
ZONE 1 - KAUNAS;LT;0;46136;46150;;;LT-46136;LT-46136
ZONE 1 - KITI;LT;0;46151;46156;;;LT-46151;LT-46151
ZONE 3 - VISKAS;LT;0;46157;46159;;;LT-46157;LT-46157
ZONE 1 - KAUNAS;LT;0;46160;46161;;;LT-46160;LT-46160
ZONE 3 - VISKAS;LT;0;46162;46170;;;LT-46162;LT-46162
ZONE 1 - KITI;LT;0;46171;46199;;;LT-46171;LT-46171
ZONE 1 - KAUNAS;LT;0;46200;46500;;;LT-46200;LT-46200
ZONE 1 - KITI;LT;0;46501;46549;;;LT-46501;LT-46501
ZONE 1 - KAUNAS;LT;0;46550;46551;;;LT-46550;LT-46550
ZONE 1 - KITI;LT;0;46552;47000;;;LT-46552;LT-46552
ZONE 1 - KAUNAS;LT;0;47001;47015;;;LT-47001;LT-47001
ZONE 1 - KITI;LT;0;47016;47099;;;LT-47016;LT-47016
ZONE 1 - KAUNAS;LT;0;47100;47338;;;LT-47100;LT-47100
ZONE 1 - KITI;LT;0;47339;47400;;;LT-47339;LT-47339
ZONE 1 - KAUNAS;LT;0;47401;47401;;;LT-47401;LT-47401
ZONE 1 - KITI;LT;0;47402;47403;;;LT-47402;LT-47402
ZONE 1 - KAUNAS;LT;0;47404;47406;;;LT-47404;LT-47404
ZONE 3 - VISKAS;LT;0;47407;47415;;;LT-47407;LT-47407
ZONE 1 - KAUNAS;LT;0;47416;47492;;;LT-47416;LT-47416
ZONE 1 - KITI;LT;0;47493;47499;;;LT-47493;LT-47493
ZONE 1 - KAUNAS;LT;0;47500;47501;;;LT-47500;LT-47500
ZONE 1 - KITI;LT;0;47502;47999;;;LT-47502;LT-47502
ZONE 1 - KAUNAS;LT;0;48000;48006;;;LT-48000;LT-48000
ZONE 1 - KITI;LT;0;48007;48008;;;LT-48007;LT-48007
ZONE 1 - KAUNAS;LT;0;48009;48014;;;LT-48009;LT-48009
ZONE 1 - KITI;LT;0;48015;48099;;;LT-48015;LT-48015
ZONE 1 - KAUNAS;LT;0;48100;48600;;;LT-48100;LT-48100
ZONE 1 - KITI;LT;0;48601;49000;;;LT-48601;LT-48601
ZONE 1 - KAUNAS;LT;0;49001;49500;;;LT-49001;LT-49001
ZONE 1 - KITI;LT;0;49501;50000;;;LT-49501;LT-49501
ZONE 1 - KAUNAS;LT;0;50001;50025;;;LT-50001;LT-50001
ZONE 1 - KITI;LT;0;50026;50026;;;LT-50026;LT-50026
ZONE 1 - KAUNAS;LT;0;50027;50028;;;LT-50027;LT-50027
ZONE 1 - KITI;LT;0;50029;50102;;;LT-50029;LT-50029
ZONE 1 - KAUNAS;LT;0;50103;50474;;;LT-50103;LT-50103
ZONE 1 - KITI;LT;0;50475;51000;;;LT-50475;LT-50475
ZONE 1 - KAUNAS;LT;0;51001;51003;;;LT-51001;LT-51001
ZONE 1 - KITI;LT;0;51004;51099;;;LT-51004;LT-51004
ZONE 1 - KAUNAS;LT;0;51100;51501;;;LT-51100;LT-51100
ZONE 1 - KITI;LT;0;51502;52000;;;LT-51502;LT-51502
ZONE 1 - KAUNAS;LT;0;52001;52006;;;LT-52001;LT-52001
ZONE 1 - KITI;LT;0;52007;52099;;;LT-52007;LT-52007
ZONE 1 - KAUNAS;LT;0;52100;52600;;;LT-52100;LT-52100
ZONE 1 - KITI;LT;0;52601;53000;;;LT-52601;LT-52601
ZONE 3 - VISKAS;LT;0;53001;53201;;;LT-53001;LT-53001
ZONE 1 - KAUNAS;LT;0;53202;53277;;;LT-53202;LT-53202
ZONE 3 - VISKAS;LT;0;53278;53304;;;LT-53278;LT-53278
ZONE 1 - KAUNAS;LT;0;53305;53305;;;LT-53305;LT-53305
ZONE 3 - VISKAS;LT;0;53306;53360;;;LT-53306;LT-53306
ZONE 1 - KITI;LT;0;53361;53361;;;LT-53361;LT-53361
ZONE 3 - VISKAS;LT;0;53362;54065;;;LT-53362;LT-53362
ZONE 1 - KITI;LT;0;54066;54066;;;LT-54066;LT-54066
ZONE 3 - VISKAS;LT;0;54067;54310;;;LT-54067;LT-54067
ZONE 1 - KAUNAS;LT;0;54311;54311;;;LT-54311;LT-54311
ZONE 3 - VISKAS;LT;0;54312;54335;;;LT-54312;LT-54312
ZONE 1 - KITI;LT;0;54336;54336;;;LT-54336;LT-54336
ZONE 3 - VISKAS;LT;0;54337;54347;;;LT-54337;LT-54337
ZONE 1 - KITI;LT;0;54348;54370;;;LT-54348;LT-54348
ZONE 3 - VISKAS;LT;0;54371;54446;;;LT-54371;LT-54371
ZONE 1 - KITI;LT;0;54447;54462;;;LT-54447;LT-54447
ZONE 3 - VISKAS;LT;0;54463;54463;;;LT-54463;LT-54463
ZONE 1 - KAUNAS;LT;0;54464;54469;;;LT-54464;LT-54464
ZONE 3 - VISKAS;LT;0;54470;54490;;;LT-54470;LT-54470
ZONE 3 - VISKAS;LT;0;54491;55000;;;LT-54491;LT-54491
ZONE 2 - KITI;LT;0;55001;55001;;;LT-55001;LT-55001
ZONE 3 - VISKAS;LT;0;55002;55003;;;LT-55002;LT-55002
ZONE 2 - KITI;LT;0;55004;55013;;;LT-55004;LT-55004
ZONE 2 - KITI;LT;0;55014;55022;;;LT-55014;LT-55014
ZONE 3 - VISKAS;LT;0;55023;55024;;;LT-55023;LT-55023
ZONE 3 - VISKAS;LT;0;55025;55100;;;LT-55025;LT-55025
ZONE 2 - KITI;LT;0;55101;55101;;;LT-55101;LT-55101
ZONE 3 - VISKAS;LT;0;55102;55109;;;LT-55102;LT-55102
ZONE 2 - KITI;LT;0;55110;55195;;;LT-55110;LT-55110
ZONE 3 - VISKAS;LT;0;55196;55196;;;LT-55196;LT-55196
ZONE 2 - KITI;LT;0;55197;55197;;;LT-55197;LT-55197
ZONE 2 - KITI;LT;0;55198;55241;;;LT-55198;LT-55198
ZONE 3 - VISKAS;LT;0;55242;55245;;;LT-55242;LT-55242
ZONE 2 - KITI;LT;0;55246;55248;;;LT-55246;LT-55246
ZONE 2 - KITI;LT;0;55249;55264;;;LT-55249;LT-55249
ZONE 3 - VISKAS;LT;0;55265;55273;;;LT-55265;LT-55265
ZONE 2 - KITI;LT;0;55274;55275;;;LT-55274;LT-55274
ZONE 3 - VISKAS;LT;0;55276;55279;;;LT-55276;LT-55276
ZONE 3 - VISKAS;LT;0;55280;55551;;;LT-55280;LT-55280
ZONE 3 - VISKAS;LT;0;55552;56000;;;LT-55552;LT-55552
ZONE 2 - KITI;LT;0;56001;56001;;;LT-56001;LT-56001
ZONE 3 - VISKAS;LT;0;56002;56104;;;LT-56002;LT-56002
ZONE 2 - KITI;LT;0;56105;56107;;;LT-56105;LT-56105
ZONE 2 - KITI;LT;0;56108;56108;;;LT-56108;LT-56108
ZONE 3 - VISKAS;LT;0;56109;56109;;;LT-56109;LT-56109
ZONE 2 - KITI;LT;0;56110;56115;;;LT-56110;LT-56110
ZONE 3 - VISKAS;LT;0;56116;56118;;;LT-56116;LT-56116
ZONE 2 - KITI;LT;0;56119;56121;;;LT-56119;LT-56119
ZONE 2 - KITI;LT;0;56122;56122;;;LT-56122;LT-56122
ZONE 3 - VISKAS;LT;0;56123;56123;;;LT-56123;LT-56123
ZONE 2 - KITI;LT;0;56124;56135;;;LT-56124;LT-56124
ZONE 2 - KITI;LT;0;56136;56136;;;LT-56136;LT-56136
ZONE 3 - VISKAS;LT;0;56137;56139;;;LT-56137;LT-56137
ZONE 2 - KITI;LT;0;56140;56142;;;LT-56140;LT-56140
ZONE 2 - KITI;LT;0;56143;56175;;;LT-56143;LT-56143
ZONE 2 - KITI;LT;0;56176;56176;;;LT-56176;LT-56176
ZONE 3 - VISKAS;LT;0;56177;56554;;;LT-56177;LT-56177
ZONE 3 - VISKAS;LT;0;56555;57000;;;LT-56555;LT-56555
ZONE 2 - KITI;LT;0;57001;57001;;;LT-57001;LT-57001
ZONE 3 - VISKAS;LT;0;57002;57003;;;LT-57002;LT-57002
ZONE 2 - KITI;LT;0;57004;57004;;;LT-57004;LT-57004
ZONE 2 - KITI;LT;0;57005;57005;;;LT-57005;LT-57005
ZONE 3 - VISKAS;LT;0;57006;57099;;;LT-57006;LT-57006
ZONE 3 - VISKAS;LT;0;57100;57121;;;LT-57100;LT-57100
ZONE 3 - VISKAS;LT;0;57122;57124;;;LT-57122;LT-57122
ZONE 2 - KĖDAINIAI;LT;0;57125;57130;;;LT-57125;LT-57125
ZONE 2 - KITI;LT;0;57131;57131;;;LT-57131;LT-57131
ZONE 2 - KĖDAINIAI;LT;0;57132;57132;;;LT-57132;LT-57132
ZONE 2 - KITI;LT;0;57133;57133;;;LT-57133;LT-57133
ZONE 2 - KĖDAINIAI;LT;0;57134;57135;;;LT-57134;LT-57134
ZONE 3 - VISKAS;LT;0;57136;57136;;;LT-57136;LT-57136
ZONE 2 - KĖDAINIAI;LT;0;57137;57146;;;LT-57137;LT-57137
ZONE 2 - KITI;LT;0;57147;57147;;;LT-57147;LT-57147
ZONE 2 - KĖDAINIAI;LT;0;57148;57149;;;LT-57148;LT-57148
ZONE 2 - KITI;LT;0;57150;57150;;;LT-57150;LT-57150
ZONE 2 - KĖDAINIAI;LT;0;57151;57154;;;LT-57151;LT-57151
ZONE 3 - VISKAS;LT;0;57155;57155;;;LT-57155;LT-57155
ZONE 2 - KĖDAINIAI;LT;0;57156;57156;;;LT-57156;LT-57156
ZONE 2 - KĖDAINIAI;LT;0;57157;57164;;;LT-57157;LT-57157
ZONE 2 - KITI;LT;0;57165;57165;;;LT-57165;LT-57165
ZONE 2 - KĖDAINIAI;LT;0;57166;57167;;;LT-57166;LT-57166
ZONE 2 - KITI;LT;0;57168;57170;;;LT-57168;LT-57168
ZONE 2 - KĖDAINIAI;LT;0;57171;57172;;;LT-57171;LT-57171
ZONE 2 - KITI;LT;0;57173;57173;;;LT-57173;LT-57173
ZONE 2 - KĖDAINIAI;LT;0;57174;57175;;;LT-57174;LT-57174
ZONE 2 - KITI;LT;0;57176;57176;;;LT-57176;LT-57176
ZONE 2 - KĖDAINIAI;LT;0;57177;57186;;;LT-57177;LT-57177
ZONE 2 - KITI;LT;0;57187;57187;;;LT-57187;LT-57187
ZONE 2 - KĖDAINIAI;LT;0;57188;57203;;;LT-57188;LT-57188
ZONE 2 - KITI;LT;0;57204;57204;;;LT-57204;LT-57204
ZONE 2 - KĖDAINIAI;LT;0;57205;57219;;;LT-57205;LT-57205
ZONE 2 - KITI;LT;0;57220;57220;;;LT-57220;LT-57220
ZONE 2 - KĖDAINIAI;LT;0;57221;57228;;;LT-57221;LT-57221
ZONE 2 - KITI;LT;0;57229;57229;;;LT-57229;LT-57229
ZONE 2 - KĖDAINIAI;LT;0;57230;57230;;;LT-57230;LT-57230
ZONE 2 - KITI;LT;0;57231;57231;;;LT-57231;LT-57231
ZONE 2 - KĖDAINIAI;LT;0;57232;57238;;;LT-57232;LT-57232
ZONE 2 - KITI;LT;0;57239;57240;;;LT-57239;LT-57239
ZONE 2 - KĖDAINIAI;LT;0;57241;57263;;;LT-57241;LT-57241
ZONE 2 - KITI;LT;0;57264;57264;;;LT-57264;LT-57264
ZONE 2 - KĖDAINIAI;LT;0;57265;57284;;;LT-57265;LT-57265
ZONE 2 - KITI;LT;0;57285;57285;;;LT-57285;LT-57285
ZONE 2 - KĖDAINIAI;LT;0;57286;57301;;;LT-57286;LT-57286
ZONE 2 - KITI;LT;0;57302;57302;;;LT-57302;LT-57302
ZONE 2 - KĖDAINIAI;LT;0;57303;57306;;;LT-57303;LT-57303
ZONE 2 - KITI;LT;0;57307;57307;;;LT-57307;LT-57307
ZONE 2 - KĖDAINIAI;LT;0;57308;57315;;;LT-57308;LT-57308
ZONE 2 - KITI;LT;0;57316;57317;;;LT-57316;LT-57316
ZONE 2 - KĖDAINIAI;LT;0;57318;57320;;;LT-57318;LT-57318
ZONE 2 - KITI;LT;0;57321;57321;;;LT-57321;LT-57321
ZONE 2 - KĖDAINIAI;LT;0;57322;57323;;;LT-57322;LT-57322
ZONE 2 - KITI;LT;0;57324;57325;;;LT-57324;LT-57324
ZONE 2 - KĖDAINIAI;LT;0;57326;57329;;;LT-57326;LT-57326
ZONE 2 - KITI;LT;0;57330;57330;;;LT-57330;LT-57330
ZONE 3 - VISKAS;LT;0;57331;57346;;;LT-57331;LT-57331
ZONE 2 - KITI;LT;0;57347;57349;;;LT-57347;LT-57347
ZONE 2 - KĖDAINIAI;LT;0;57350;57352;;;LT-57350;LT-57350
ZONE 2 - KITI;LT;0;57353;57353;;;LT-57353;LT-57353
ZONE 2 - KĖDAINIAI;LT;0;57354;57354;;;LT-57354;LT-57354
ZONE 2 - KITI;LT;0;57355;57355;;;LT-57355;LT-57355
ZONE 2 - KĖDAINIAI;LT;0;57356;57359;;;LT-57356;LT-57356
ZONE 2 - KITI;LT;0;57360;57360;;;LT-57360;LT-57360
ZONE 2 - KĖDAINIAI;LT;0;57361;57373;;;LT-57361;LT-57361
ZONE 2 - KITI;LT;0;57374;57374;;;LT-57374;LT-57374
ZONE 2 - KĖDAINIAI;LT;0;57375;57375;;;LT-57375;LT-57375
ZONE 2 - KITI;LT;0;57376;57394;;;LT-57376;LT-57376
ZONE 2 - KĖDAINIAI;LT;0;57395;57402;;;LT-57395;LT-57395
ZONE 2 - KITI;LT;0;57403;57403;;;LT-57403;LT-57403
ZONE 2 - KĖDAINIAI;LT;0;57404;57407;;;LT-57404;LT-57404
ZONE 2 - KITI;LT;0;57408;57408;;;LT-57408;LT-57408
ZONE 2 - KĖDAINIAI;LT;0;57409;57421;;;LT-57409;LT-57409
ZONE 2 - KITI;LT;0;57422;57422;;;LT-57422;LT-57422
ZONE 2 - KĖDAINIAI;LT;0;57423;57425;;;LT-57423;LT-57423
ZONE 2 - KITI;LT;0;57426;57426;;;LT-57426;LT-57426
ZONE 2 - KĖDAINIAI;LT;0;57427;57432;;;LT-57427;LT-57427
ZONE 2 - KITI;LT;0;57433;57433;;;LT-57433;LT-57433
ZONE 2 - KĖDAINIAI;LT;0;57434;57440;;;LT-57434;LT-57434
ZONE 2 - KITI;LT;0;57441;57441;;;LT-57441;LT-57441
ZONE 2 - KĖDAINIAI;LT;0;57442;57445;;;LT-57442;LT-57442
ZONE 2 - KITI;LT;0;57446;57447;;;LT-57446;LT-57446
ZONE 2 - KĖDAINIAI;LT;0;57448;57450;;;LT-57448;LT-57448
ZONE 2 - KITI;LT;0;57451;57451;;;LT-57451;LT-57451
ZONE 2 - KĖDAINIAI;LT;0;57452;57452;;;LT-57452;LT-57452
ZONE 2 - KITI;LT;0;57453;57453;;;LT-57453;LT-57453
ZONE 2 - KĖDAINIAI;LT;0;57454;57455;;;LT-57454;LT-57454
ZONE 2 - KITI;LT;0;57456;57456;;;LT-57456;LT-57456
ZONE 2 - KĖDAINIAI;LT;0;57457;57462;;;LT-57457;LT-57457
ZONE 2 - KITI;LT;0;57463;57463;;;LT-57463;LT-57463
ZONE 2 - KĖDAINIAI;LT;0;57464;57469;;;LT-57464;LT-57464
ZONE 2 - KITI;LT;0;57470;57502;;;LT-57470;LT-57470
ZONE 3 - VISKAS;LT;0;57503;58000;;;LT-57503;LT-57503
ZONE 3 - VISKAS;LT;0;58001;58494;;;LT-58001;LT-58001
ZONE 3 - VISKAS;LT;0;58495;59000;;;LT-58495;LT-58495
ZONE 2 - KITI;LT;0;59001;59001;;;LT-59001;LT-59001
ZONE 2 - KITI;LT;0;59002;59008;;;LT-59002;LT-59002
ZONE 2 - KITI;LT;0;59009;59009;;;LT-59009;LT-59009
ZONE 3 - VISKAS;LT;0;59010;59106;;;LT-59010;LT-59010
ZONE 2 - KITI;LT;0;59107;59107;;;LT-59107;LT-59107
ZONE 3 - VISKAS;LT;0;59108;59108;;;LT-59108;LT-59108
ZONE 2 - KITI;LT;0;59109;59147;;;LT-59109;LT-59109
ZONE 3 - VISKAS;LT;0;59148;59149;;;LT-59148;LT-59148
ZONE 2 - KITI;LT;0;59150;59154;;;LT-59150;LT-59150
ZONE 3 - VISKAS;LT;0;59155;59200;;;LT-59155;LT-59155
ZONE 2 - KITI;LT;0;59201;59214;;;LT-59201;LT-59201
ZONE 3 - VISKAS;LT;0;59215;59215;;;LT-59215;LT-59215
ZONE 2 - KITI;LT;0;59216;59216;;;LT-59216;LT-59216
ZONE 2 - KITI;LT;0;59217;59220;;;LT-59217;LT-59217
ZONE 3 - VISKAS;LT;0;59221;59452;;;LT-59221;LT-59221
ZONE 3 - VISKAS;LT;0;59453;59540;;;LT-59453;LT-59453
ZONE 2 - KITI;LT;0;59541;59542;;;LT-59541;LT-59541
ZONE 3 - VISKAS;LT;0;59543;60000;;;LT-59543;LT-59543
ZONE 2 - KITI;LT;0;60001;60001;;;LT-60001;LT-60001
ZONE 3 - VISKAS;LT;0;60002;60111;;;LT-60002;LT-60002
ZONE 2 - KITI;LT;0;60112;60157;;;LT-60112;LT-60112
ZONE 3 - VISKAS;LT;0;60158;60163;;;LT-60158;LT-60158
ZONE 2 - KITI;LT;0;60164;60187;;;LT-60164;LT-60164
ZONE 3 - VISKAS;LT;0;60188;60487;;;LT-60188;LT-60188
ZONE 3 - VISKAS;LT;0;60488;62000;;;LT-60488;LT-60488
ZONE 1 - ALYTUS;LT;0;62001;62014;;;LT-62001;LT-62001
ZONE 1 - KITI;LT;0;62015;62099;;;LT-62015;LT-62015
ZONE 1 - ALYTUS;LT;0;62100;62176;;;LT-62100;LT-62100
ZONE 1 - KITI;LT;0;62177;62180;;;LT-62177;LT-62177
ZONE 3 - VISKAS;LT;0;62181;62195;;;LT-62181;LT-62181
ZONE 1 - KITI;LT;0;62196;62199;;;LT-62196;LT-62196
ZONE 1 - ALYTUS;LT;0;62200;62452;;;LT-62200;LT-62200
ZONE 1 - KITI;LT;0;62453;62460;;;LT-62453;LT-62453
ZONE 3 - VISKAS;LT;0;62461;62481;;;LT-62461;LT-62461
ZONE 1 - KITI;LT;0;62482;62499;;;LT-62482;LT-62482
ZONE 1 - ALYTUS;LT;0;62500;63431;;;LT-62500;LT-62500
ZONE 1 - KITI;LT;0;63432;63499;;;LT-63432;LT-63432
ZONE 3 - VISKAS;LT;0;63500;64000;;;LT-63500;LT-63500
ZONE 3 - VISKAS;LT;0;64001;64486;;;LT-64001;LT-64001
ZONE 3 - VISKAS;LT;0;64487;65000;;;LT-64487;LT-64487
ZONE 2 - KITI;LT;0;65001;65001;;;LT-65001;LT-65001
ZONE 3 - VISKAS;LT;0;65002;65006;;;LT-65002;LT-65002
ZONE 3 - VISKAS;LT;0;65007;65075;;;LT-65007;LT-65007
ZONE 3 - VISKAS;LT;0;65076;65145;;;LT-65076;LT-65076
ZONE 2 - KITI;LT;0;65146;65219;;;LT-65146;LT-65146
ZONE 3 - VISKAS;LT;0;65220;65492;;;LT-65220;LT-65220
ZONE 3 - VISKAS;LT;0;65493;65499;;;LT-65493;LT-65493
ZONE 2 - KITI;LT;0;65500;65500;;;LT-65500;LT-65500
ZONE 3 - VISKAS;LT;0;65501;66000;;;LT-65501;LT-65501
ZONE 2 - KITI;LT;0;66001;66001;;;LT-66001;LT-66001
ZONE 3 - VISKAS;LT;0;66002;66007;;;LT-66002;LT-66002
ZONE 2 - KITI;LT;0;66008;66100;;;LT-66008;LT-66008
ZONE 2 - KITI;LT;0;66101;66225;;;LT-66101;LT-66101
ZONE 2 - KITI;LT;0;66226;66376;;;LT-66226;LT-66226
ZONE 3 - VISKAS;LT;0;66377;66381;;;LT-66377;LT-66377
ZONE 3 - VISKAS;LT;0;66382;66382;;;LT-66382;LT-66382
ZONE 3 - VISKAS;LT;0;66383;66400;;;LT-66383;LT-66383
ZONE 3 - VISKAS;LT;0;66401;66498;;;LT-66401;LT-66401
ZONE 3 - VISKAS;LT;0;66499;67000;;;LT-66499;LT-66499
ZONE 2 - KITI;LT;0;67001;67001;;;LT-67001;LT-67001
ZONE 3 - VISKAS;LT;0;67002;67079;;;LT-67002;LT-67002
ZONE 3 - VISKAS;LT;0;67080;67100;;;LT-67080;LT-67080
ZONE 2 - KITI;LT;0;67101;67132;;;LT-67101;LT-67101
ZONE 2 - KITI;LT;0;67133;67134;;;LT-67133;LT-67133
ZONE 3 - VISKAS;LT;0;67135;67165;;;LT-67135;LT-67135
ZONE 3 - VISKAS;LT;0;67166;67482;;;LT-67166;LT-67166
ZONE 3 - VISKAS;LT;0;67483;67499;;;LT-67483;LT-67483
ZONE 2 - KITI;LT;0;67500;67500;;;LT-67500;LT-67500
ZONE 3 - VISKAS;LT;0;67501;68000;;;LT-67501;LT-67501
ZONE 1 - MARIJAMPOLĖ;LT;0;68001;68014;;;LT-68001;LT-68001
ZONE 3 - VISKAS;LT;0;68015;68099;;;LT-68015;LT-68015
ZONE 3 - VISKAS;LT;0;68100;68107;;;LT-68100;LT-68100
ZONE 1 - MARIJAMPOLĖ;LT;0;68108;68114;;;LT-68108;LT-68108
ZONE 3 - VISKAS;LT;0;68115;68116;;;LT-68115;LT-68115
ZONE 1 - MARIJAMPOLĖ;LT;0;68117;68122;;;LT-68117;LT-68117
ZONE 3 - VISKAS;LT;0;68123;68124;;;LT-68123;LT-68123
ZONE 1 - MARIJAMPOLĖ;LT;0;68125;68125;;;LT-68125;LT-68125
ZONE 3 - VISKAS;LT;0;68126;68126;;;LT-68126;LT-68126
ZONE 1 - MARIJAMPOLĖ;LT;0;68127;68127;;;LT-68127;LT-68127
ZONE 1 - KITI;LT;0;68128;68128;;;LT-68128;LT-68128
ZONE 3 - VISKAS;LT;0;68129;68130;;;LT-68129;LT-68129
ZONE 1 - MARIJAMPOLĖ;LT;0;68131;68312;;;LT-68131;LT-68131
ZONE 1 - KITI;LT;0;68313;68459;;;LT-68313;LT-68313
ZONE 3 - VISKAS;LT;0;68460;68464;;;LT-68460;LT-68460
ZONE 1 - KITI;LT;0;68465;68499;;;LT-68465;LT-68465
ZONE 1 - MARIJAMPOLĖ;LT;0;68500;68505;;;LT-68500;LT-68500
ZONE 3 - VISKAS;LT;0;68506;69000;;;LT-68506;LT-68506
ZONE 3 - VISKAS;LT;0;69001;69492;;;LT-69001;LT-69001
ZONE 3 - VISKAS;LT;0;69493;70000;;;LT-69493;LT-69493
ZONE 2 - KITI;LT;0;70001;70001;;;LT-70001;LT-70001
ZONE 3 - VISKAS;LT;0;70002;70085;;;LT-70002;LT-70002
ZONE 3 - VISKAS;LT;0;70086;70100;;;LT-70086;LT-70086
ZONE 2 - KITI;LT;0;70101;70190;;;LT-70101;LT-70101
ZONE 3 - VISKAS;LT;0;70191;70498;;;LT-70191;LT-70191
ZONE 3 - VISKAS;LT;0;70499;70499;;;LT-70499;LT-70499
ZONE 2 - KITI;LT;0;70500;70500;;;LT-70500;LT-70500
ZONE 3 - VISKAS;LT;0;70501;71000;;;LT-70501;LT-70501
ZONE 2 - KITI;LT;0;71001;71001;;;LT-71001;LT-71001
ZONE 3 - VISKAS;LT;0;71002;71107;;;LT-71002;LT-71002
ZONE 2 - KITI;LT;0;71108;71127;;;LT-71108;LT-71108
ZONE 3 - VISKAS;LT;0;71128;71129;;;LT-71128;LT-71128
ZONE 2 - KITI;LT;0;71130;71130;;;LT-71130;LT-71130
ZONE 3 - VISKAS;LT;0;71131;71131;;;LT-71131;LT-71131
ZONE 2 - KITI;LT;0;71132;71133;;;LT-71132;LT-71132
ZONE 3 - VISKAS;LT;0;71134;71134;;;LT-71134;LT-71134
ZONE 2 - KITI;LT;0;71135;71139;;;LT-71135;LT-71135
ZONE 3 - VISKAS;LT;0;71140;71491;;;LT-71140;LT-71140
ZONE 3 - VISKAS;LT;0;71492;71499;;;LT-71492;LT-71492
ZONE 2 - KITI;LT;0;71500;71500;;;LT-71500;LT-71500
ZONE 3 - VISKAS;LT;0;71501;71503;;;LT-71501;LT-71501
ZONE 2 - KITI;LT;0;71504;71504;;;LT-71504;LT-71504
ZONE 3 - VISKAS;LT;0;71505;72000;;;LT-71505;LT-71505
ZONE 1 - TAURAGĖ;LT;0;72001;72022;;;LT-72001;LT-72001
ZONE 3 - VISKAS;LT;0;72023;72099;;;LT-72023;LT-72023
ZONE 3 - VISKAS;LT;0;72100;72106;;;LT-72100;LT-72100
ZONE 1 - TAURAGĖ;LT;0;72107;72112;;;LT-72107;LT-72107
ZONE 3 - VISKAS;LT;0;72113;72138;;;LT-72113;LT-72113
ZONE 1 - TAURAGĖ;LT;0;72139;72148;;;LT-72139;LT-72139
ZONE 1 - KITI;LT;0;72149;72150;;;LT-72149;LT-72149
ZONE 3 - VISKAS;LT;0;72151;72172;;;LT-72151;LT-72151
ZONE 1 - KITI;LT;0;72173;72173;;;LT-72173;LT-72173
ZONE 1 - TAURAGĖ;LT;0;72174;72176;;;LT-72174;LT-72174
ZONE 3 - VISKAS;LT;0;72177;72180;;;LT-72177;LT-72177
ZONE 1 - KITI;LT;0;72181;72181;;;LT-72181;LT-72181
ZONE 1 - TAURAGĖ;LT;0;72182;72196;;;LT-72182;LT-72182
ZONE 3 - VISKAS;LT;0;72197;72197;;;LT-72197;LT-72197
ZONE 1 - KITI;LT;0;72198;72198;;;LT-72198;LT-72198
ZONE 1 - TAURAGĖ;LT;0;72199;72315;;;LT-72199;LT-72199
ZONE 3 - VISKAS;LT;0;72316;72316;;;LT-72316;LT-72316
ZONE 1 - TAURAGĖ;LT;0;72317;72343;;;LT-72317;LT-72317
ZONE 1 - KITI;LT;0;72344;72345;;;LT-72344;LT-72344
ZONE 3 - VISKAS;LT;0;72346;72358;;;LT-72346;LT-72346
ZONE 1 - TAURAGĖ;LT;0;72359;72363;;;LT-72359;LT-72359
ZONE 3 - VISKAS;LT;0;72364;72375;;;LT-72364;LT-72364
ZONE 3 - VISKAS;LT;0;72376;72499;;;LT-72376;LT-72376
ZONE 1 - TAURAGĖ;LT;0;72500;72501;;;LT-72500;LT-72500
ZONE 3 - VISKAS;LT;0;72502;72502;;;LT-72502;LT-72502
ZONE 1 - TAURAGĖ;LT;0;72503;72503;;;LT-72503;LT-72503
ZONE 3 - VISKAS;LT;0;72504;73000;;;LT-72504;LT-72504
ZONE 3 - VISKAS;LT;0;73001;73474;;;LT-73001;LT-73001
ZONE 3 - VISKAS;LT;0;73475;74000;;;LT-73475;LT-73475
ZONE 2 - KITI;LT;0;74001;74001;;;LT-74001;LT-74001
ZONE 3 - VISKAS;LT;0;74002;74102;;;LT-74002;LT-74002
ZONE 3 - VISKAS;LT;0;74103;74105;;;LT-74103;LT-74103
ZONE 2 - KITI;LT;0;74106;74187;;;LT-74106;LT-74106
ZONE 3 - VISKAS;LT;0;74188;74191;;;LT-74188;LT-74188
ZONE 3 - VISKAS;LT;0;74192;74199;;;LT-74192;LT-74192
ZONE 2 - KITI;LT;0;74200;74212;;;LT-74200;LT-74200
ZONE 3 - VISKAS;LT;0;74213;74486;;;LT-74213;LT-74213
ZONE 3 - VISKAS;LT;0;74487;75000;;;LT-74487;LT-74487
ZONE 2 - KITI;LT;0;75001;75001;;;LT-75001;LT-75001
ZONE 3 - VISKAS;LT;0;75002;75118;;;LT-75002;LT-75002
ZONE 3 - VISKAS;LT;0;75119;75120;;;LT-75119;LT-75119
ZONE 2 - KITI;LT;0;75121;75138;;;LT-75121;LT-75121
ZONE 3 - VISKAS;LT;0;75139;75199;;;LT-75139;LT-75139
ZONE 3 - VISKAS;LT;0;75200;75493;;;LT-75200;LT-75200
ZONE 3 - VISKAS;LT;0;75494;76000;;;LT-75494;LT-75494
ZONE 1 - ŠIAULIAI;LT;0;76001;76025;;;LT-76001;LT-76001
ZONE 1 - KITI;LT;0;76026;76099;;;LT-76026;LT-76026
ZONE 3 - VISKAS;LT;0;76100;76117;;;LT-76100;LT-76100
ZONE 1 - KITI;LT;0;76118;76121;;;LT-76118;LT-76118
ZONE 3 - VISKAS;LT;0;76122;76122;;;LT-76122;LT-76122
ZONE 1 - ŠIAULIAI;LT;0;76123;76150;;;LT-76123;LT-76123
ZONE 3 - VISKAS;LT;0;76151;76153;;;LT-76151;LT-76151
ZONE 1 - ŠIAULIAI;LT;0;76154;76164;;;LT-76154;LT-76154
ZONE 1 - KITI;LT;0;76165;76166;;;LT-76165;LT-76165
ZONE 3 - VISKAS;LT;0;76167;76169;;;LT-76167;LT-76167
ZONE 1 - KITI;LT;0;76170;76171;;;LT-76170;LT-76170
ZONE 1 - ŠIAULIAI;LT;0;76172;76218;;;LT-76172;LT-76172
ZONE 1 - KITI;LT;0;76219;76220;;;LT-76219;LT-76219
ZONE 3 - VISKAS;LT;0;76221;76221;;;LT-76221;LT-76221
ZONE 1 - KITI;LT;0;76222;76222;;;LT-76222;LT-76222
ZONE 1 - ŠIAULIAI;LT;0;76223;76311;;;LT-76223;LT-76223
ZONE 1 - KITI;LT;0;76312;76314;;;LT-76312;LT-76312
ZONE 3 - VISKAS;LT;0;76315;76323;;;LT-76315;LT-76315
ZONE 1 - KITI;LT;0;76324;76325;;;LT-76324;LT-76324
ZONE 1 - ŠIAULIAI;LT;0;76326;76372;;;LT-76326;LT-76326
ZONE 1 - ŠIAULIAI;LT;0;76373;76374;;;LT-76373;LT-76373
ZONE 1 - KITI;LT;0;76375;76379;;;LT-76375;LT-76375
ZONE 1 - ŠIAULIAI;LT;0;76380;76399;;;LT-76380;LT-76380
ZONE 1 - KITI;LT;0;76400;76475;;;LT-76400;LT-76400
ZONE 3 - VISKAS;LT;0;76476;76481;;;LT-76476;LT-76476
ZONE 1 - KITI;LT;0;76482;76499;;;LT-76482;LT-76482
ZONE 1 - ŠIAULIAI;LT;0;76500;77007;;;LT-76500;LT-76500
ZONE 1 - KITI;LT;0;77008;77099;;;LT-77008;LT-77008
ZONE 1 - ŠIAULIAI;LT;0;77100;77189;;;LT-77100;LT-77100
ZONE 1 - KITI;LT;0;77190;77190;;;LT-77190;LT-77190
ZONE 3 - VISKAS;LT;0;77191;77200;;;LT-77191;LT-77191
ZONE 1 - ŠIAULIAI;LT;0;77201;77216;;;LT-77201;LT-77201
ZONE 1 - KITI;LT;0;77217;78000;;;LT-77217;LT-77217
ZONE 1 - ŠIAULIAI;LT;0;78001;78016;;;LT-78001;LT-78001
ZONE 1 - KITI;LT;0;78017;78100;;;LT-78017;LT-78017
ZONE 1 - ŠIAULIAI;LT;0;78101;78217;;;LT-78101;LT-78101
ZONE 1 - KITI;LT;0;78218;78218;;;LT-78218;LT-78218
ZONE 3 - VISKAS;LT;0;78219;78221;;;LT-78219;LT-78219
ZONE 1 - ŠIAULIAI;LT;0;78222;78307;;;LT-78222;LT-78222
ZONE 3 - VISKAS;LT;0;78308;78308;;;LT-78308;LT-78308
ZONE 1 - ŠIAULIAI;LT;0;78309;78400;;;LT-78309;LT-78309
ZONE 1 - KITI;LT;0;78401;78407;;;LT-78401;LT-78401
ZONE 3 - VISKAS;LT;0;78408;78408;;;LT-78408;LT-78408
ZONE 1 - ŠIAULIAI;LT;0;78409;78502;;;LT-78409;LT-78409
ZONE 1 - KITI;LT;0;78503;79000;;;LT-78503;LT-78503
ZONE 1 - ŠIAULIAI;LT;0;79001;79231;;;LT-79001;LT-79001
ZONE 1 - KITI;LT;0;79232;79232;;;LT-79232;LT-79232
ZONE 3 - VISKAS;LT;0;79233;79233;;;LT-79233;LT-79233
ZONE 1 - KITI;LT;0;79234;79234;;;LT-79234;LT-79234
ZONE 1 - ŠIAULIAI;LT;0;79235;79246;;;LT-79235;LT-79235
ZONE 1 - KITI;LT;0;79247;79299;;;LT-79247;LT-79247
ZONE 3 - VISKAS;LT;0;79300;80000;;;LT-79300;LT-79300
ZONE 3 - VISKAS;LT;0;80001;81498;;;LT-80001;LT-80001
ZONE 3 - VISKAS;LT;0;81499;82000;;;LT-81499;LT-81499
ZONE 2 - KITI;LT;0;82001;82001;;;LT-82001;LT-82001
ZONE 2 - KITI;LT;0;82002;82002;;;LT-82002;LT-82002
ZONE 3 - VISKAS;LT;0;82003;82003;;;LT-82003;LT-82003
ZONE 3 - VISKAS;LT;0;82004;82111;;;LT-82004;LT-82004
ZONE 2 - KITI;LT;0;82112;82182;;;LT-82112;LT-82112
ZONE 3 - VISKAS;LT;0;82183;82185;;;LT-82183;LT-82183
ZONE 2 - KITI;LT;0;82186;82199;;;LT-82186;LT-82186
ZONE 3 - VISKAS;LT;0;82200;82498;;;LT-82200;LT-82200
ZONE 3 - VISKAS;LT;0;82499;83000;;;LT-82499;LT-82499
ZONE 2 - KITI;LT;0;83001;83001;;;LT-83001;LT-83001
ZONE 3 - VISKAS;LT;0;83002;83003;;;LT-83002;LT-83002
ZONE 3 - VISKAS;LT;0;83004;83106;;;LT-83004;LT-83004
ZONE 3 - VISKAS;LT;0;83107;83110;;;LT-83107;LT-83107
ZONE 2 - KITI;LT;0;83111;83114;;;LT-83111;LT-83111
ZONE 2 - KITI;LT;0;83115;83115;;;LT-83115;LT-83115
ZONE 3 - VISKAS;LT;0;83116;83121;;;LT-83116;LT-83116
ZONE 2 - KITI;LT;0;83122;83145;;;LT-83122;LT-83122
ZONE 2 - KITI;LT;0;83146;83146;;;LT-83146;LT-83146
ZONE 3 - VISKAS;LT;0;83147;83147;;;LT-83147;LT-83147
ZONE 2 - KITI;LT;0;83148;83163;;;LT-83148;LT-83148
ZONE 2 - KITI;LT;0;83164;83165;;;LT-83164;LT-83164
ZONE 3 - VISKAS;LT;0;83166;83181;;;LT-83166;LT-83166
ZONE 2 - KITI;LT;0;83182;83182;;;LT-83182;LT-83182
ZONE 3 - VISKAS;LT;0;83183;83478;;;LT-83183;LT-83183
ZONE 3 - VISKAS;LT;0;83479;84000;;;LT-83479;LT-83479
ZONE 2 - KITI;LT;0;84001;84001;;;LT-84001;LT-84001
ZONE 3 - VISKAS;LT;0;84002;84102;;;LT-84002;LT-84002
ZONE 2 - KITI;LT;0;84103;84110;;;LT-84103;LT-84103
ZONE 3 - VISKAS;LT;0;84111;84111;;;LT-84111;LT-84111
ZONE 2 - KITI;LT;0;84112;84116;;;LT-84112;LT-84112
ZONE 2 - KITI;LT;0;84117;84117;;;LT-84117;LT-84117
ZONE 3 - VISKAS;LT;0;84118;84120;;;LT-84118;LT-84118
ZONE 2 - KITI;LT;0;84121;84121;;;LT-84121;LT-84121
ZONE 2 - KITI;LT;0;84122;84130;;;LT-84122;LT-84122
ZONE 3 - VISKAS;LT;0;84131;84131;;;LT-84131;LT-84131
ZONE 2 - KITI;LT;0;84132;84163;;;LT-84132;LT-84132
ZONE 3 - VISKAS;LT;0;84164;84164;;;LT-84164;LT-84164
ZONE 2 - KITI;LT;0;84165;84184;;;LT-84165;LT-84165
ZONE 3 - VISKAS;LT;0;84185;84192;;;LT-84185;LT-84185
ZONE 3 - VISKAS;LT;0;84193;84447;;;LT-84193;LT-84193
ZONE 3 - VISKAS;LT;0;84448;85000;;;LT-84448;LT-84448
ZONE 2 - KITI;LT;0;85001;85001;;;LT-85001;LT-85001
ZONE 3 - VISKAS;LT;0;85002;85003;;;LT-85002;LT-85002
ZONE 3 - VISKAS;LT;0;85004;85107;;;LT-85004;LT-85004
ZONE 2 - KITI;LT;0;85108;85110;;;LT-85108;LT-85108
ZONE 2 - KITI;LT;0;85111;85116;;;LT-85111;LT-85111
ZONE 3 - VISKAS;LT;0;85117;85117;;;LT-85117;LT-85117
ZONE 2 - KITI;LT;0;85118;85118;;;LT-85118;LT-85118
ZONE 3 - VISKAS;LT;0;85119;85120;;;LT-85119;LT-85119
ZONE 2 - KITI;LT;0;85121;85121;;;LT-85121;LT-85121
ZONE 2 - KITI;LT;0;85122;85197;;;LT-85122;LT-85122
ZONE 3 - VISKAS;LT;0;85198;85199;;;LT-85198;LT-85198
ZONE 3 - VISKAS;LT;0;85200;85485;;;LT-85200;LT-85200
ZONE 3 - VISKAS;LT;0;85486;86000;;;LT-85486;LT-85486
ZONE 2 - KITI;LT;0;86001;86001;;;LT-86001;LT-86001
ZONE 3 - VISKAS;LT;0;86002;86010;;;LT-86002;LT-86002
ZONE 3 - VISKAS;LT;0;86011;86107;;;LT-86011;LT-86011
ZONE 2 - KITI;LT;0;86108;86113;;;LT-86108;LT-86108
ZONE 3 - VISKAS;LT;0;86114;86120;;;LT-86114;LT-86114
ZONE 2 - KITI;LT;0;86121;86147;;;LT-86121;LT-86121
ZONE 3 - VISKAS;LT;0;86148;86149;;;LT-86148;LT-86148
ZONE 2 - KITI;LT;0;86150;86189;;;LT-86150;LT-86150
ZONE 3 - VISKAS;LT;0;86190;86191;;;LT-86190;LT-86190
ZONE 2 - KITI;LT;0;86192;86193;;;LT-86192;LT-86192
ZONE 3 - VISKAS;LT;0;86194;86498;;;LT-86194;LT-86194
ZONE 3 - VISKAS;LT;0;86499;87000;;;LT-86499;LT-86499
ZONE 1 - TELŠIAI;LT;0;87001;87027;;;LT-87001;LT-87001
ZONE 1 - KITI;LT;0;87028;87100;;;LT-87028;LT-87028
ZONE 1 - TELŠIAI;LT;0;87101;87149;;;LT-87101;LT-87101
ZONE 3 - VISKAS;LT;0;87150;87155;;;LT-87150;LT-87150
ZONE 1 - KITI;LT;0;87156;87299;;;LT-87156;LT-87156
ZONE 1 - TELŠIAI;LT;0;87300;87399;;;LT-87300;LT-87300
ZONE 3 - VISKAS;LT;0;87400;88492;;;LT-87400;LT-87400
ZONE 3 - VISKAS;LT;0;88493;89000;;;LT-88493;LT-88493
ZONE 2 - KITI;LT;0;89001;89016;;;LT-89001;LT-89001
ZONE 3 - VISKAS;LT;0;89017;89018;;;LT-89017;LT-89017
ZONE 2 - KITI;LT;0;89019;89020;;;LT-89019;LT-89019
ZONE 2 - KITI;LT;0;89021;89022;;;LT-89021;LT-89021
ZONE 3 - VISKAS;LT;0;89023;89025;;;LT-89023;LT-89023
ZONE 3 - VISKAS;LT;0;89026;89094;;;LT-89026;LT-89026
ZONE 3 - VISKAS;LT;0;89095;89099;;;LT-89095;LT-89095
ZONE 2 - MAŽEIKIAI;LT;0;89100;89105;;;LT-89100;LT-89100
ZONE 2 - KITI;LT;0;89106;89106;;;LT-89106;LT-89106
ZONE 2 - MAŽEIKIAI;LT;0;89107;89112;;;LT-89107;LT-89107
ZONE 2 - KITI;LT;0;89113;89113;;;LT-89113;LT-89113
ZONE 2 - MAŽEIKIAI;LT;0;89114;89116;;;LT-89114;LT-89114
ZONE 2 - KITI;LT;0;89117;89117;;;LT-89117;LT-89117
ZONE 2 - MAŽEIKIAI;LT;0;89118;89119;;;LT-89118;LT-89118
ZONE 2 - KITI;LT;0;89120;89120;;;LT-89120;LT-89120
ZONE 2 - MAŽEIKIAI;LT;0;89121;89122;;;LT-89121;LT-89121
ZONE 2 - KITI;LT;0;89123;89123;;;LT-89123;LT-89123
ZONE 2 - MAŽEIKIAI;LT;0;89124;89130;;;LT-89124;LT-89124
ZONE 2 - KITI;LT;0;89131;89131;;;LT-89131;LT-89131
ZONE 2 - MAŽEIKIAI;LT;0;89132;89154;;;LT-89132;LT-89132
ZONE 2 - KITI;LT;0;89155;89156;;;LT-89155;LT-89155
ZONE 2 - MAŽEIKIAI;LT;0;89157;89159;;;LT-89157;LT-89157
ZONE 2 - KITI;LT;0;89160;89160;;;LT-89160;LT-89160
ZONE 2 - MAŽEIKIAI;LT;0;89161;89162;;;LT-89161;LT-89161
ZONE 2 - KITI;LT;0;89163;89163;;;LT-89163;LT-89163
ZONE 2 - MAŽEIKIAI;LT;0;89164;89190;;;LT-89164;LT-89164
ZONE 2 - KITI;LT;0;89191;89212;;;LT-89191;LT-89191
ZONE 2 - MAŽEIKIAI;LT;0;89213;89219;;;LT-89213;LT-89213
ZONE 2 - KITI;LT;0;89220;89220;;;LT-89220;LT-89220
ZONE 2 - MAŽEIKIAI;LT;0;89221;89235;;;LT-89221;LT-89221
ZONE 3 - VISKAS;LT;0;89236;89237;;;LT-89236;LT-89236
ZONE 2 - KITI;LT;0;89238;89238;;;LT-89238;LT-89238
ZONE 2 - MAŽEIKIAI;LT;0;89239;89239;;;LT-89239;LT-89239
ZONE 2 - KITI;LT;0;89240;89240;;;LT-89240;LT-89240
ZONE 3 - VISKAS;LT;0;89241;89263;;;LT-89241;LT-89241
ZONE 2 - KITI;LT;0;89264;89299;;;LT-89264;LT-89264
ZONE 2 - MAŽEIKIAI;LT;0;89300;89300;;;LT-89300;LT-89300
ZONE 3 - VISKAS;LT;0;89301;89304;;;LT-89301;LT-89301
ZONE 2 - MAŽEIKIAI;LT;0;89305;89308;;;LT-89305;LT-89305
ZONE 2 - KITI;LT;0;89309;89309;;;LT-89309;LT-89309
ZONE 3 - VISKAS;LT;0;89310;89496;;;LT-89310;LT-89310
ZONE 3 - VISKAS;LT;0;89497;89499;;;LT-89497;LT-89497
ZONE 2 - KITI;LT;0;89500;89500;;;LT-89500;LT-89500
ZONE 3 - VISKAS;LT;0;89501;90000;;;LT-89501;LT-89501
ZONE 2 - KITI;LT;0;90001;90001;;;LT-90001;LT-90001
ZONE 3 - VISKAS;LT;0;90002;90111;;;LT-90002;LT-90002
ZONE 2 - PLUNGĖ;LT;0;90112;90168;;;LT-90112;LT-90112
ZONE 3 - VISKAS;LT;0;90169;90489;;;LT-90169;LT-90169
ZONE 3 - VISKAS;LT;0;90490;91000;;;LT-90490;LT-90490
ZONE 1 - KLAIPEDA;LT;0;91001;91275;;;LT-91001;LT-91001
ZONE 3 - VISKAS;LT;0;91276;91277;;;LT-91276;LT-91276
ZONE 1 - KITI;LT;0;91278;91279;;;LT-91278;LT-91278
ZONE 1 - KLAIPEDA;LT;0;91280;91286;;;LT-91280;LT-91280
ZONE 3 - VISKAS;LT;0;91287;91291;;;LT-91287;LT-91287
ZONE 1 - KITI;LT;0;91292;91294;;;LT-91292;LT-91292
ZONE 3 - VISKAS;LT;0;91295;91295;;;LT-91295;LT-91295
ZONE 1 - KITI;LT;0;91296;91329;;;LT-91296;LT-91296
ZONE 1 - KLAIPEDA;LT;0;91330;91330;;;LT-91330;LT-91330
ZONE 1 - KITI;LT;0;91331;91499;;;LT-91331;LT-91331
ZONE 1 - KLAIPEDA;LT;0;91500;91503;;;LT-91500;LT-91500
ZONE 1 - KITI;LT;0;91504;92000;;;LT-91504;LT-91504
ZONE 1 - KLAIPEDA;LT;0;92001;92027;;;LT-92001;LT-92001
ZONE 1 - KITI;LT;0;92028;92099;;;LT-92028;LT-92028
ZONE 1 - KLAIPEDA;LT;0;92100;92335;;;LT-92100;LT-92100
ZONE 3 - VISKAS;LT;0;92336;92339;;;LT-92336;LT-92336
ZONE 1 - KLAIPEDA;LT;0;92340;92341;;;LT-92340;LT-92340
ZONE 3 - VISKAS;LT;0;92342;92343;;;LT-92342;LT-92342
ZONE 1 - KLAIPEDA;LT;0;92344;92357;;;LT-92344;LT-92344
ZONE 3 - VISKAS;LT;0;92358;92360;;;LT-92358;LT-92358
ZONE 1 - KITI;LT;0;92361;92367;;;LT-92361;LT-92361
ZONE 3 - VISKAS;LT;0;92368;92373;;;LT-92368;LT-92368
ZONE 1 - KITI;LT;0;92374;92379;;;LT-92374;LT-92374
ZONE 3 - VISKAS;LT;0;92380;92383;;;LT-92380;LT-92380
ZONE 1 - KITI;LT;0;92384;92399;;;LT-92384;LT-92384
ZONE 3 - VISKAS;LT;0;92400;92442;;;LT-92400;LT-92400
ZONE 1 - KITI;LT;0;92443;92447;;;LT-92443;LT-92443
ZONE 1 - KLAIPEDA;LT;0;92448;92448;;;LT-92448;LT-92448
ZONE 3 - VISKAS;LT;0;92449;92449;;;LT-92449;LT-92449
ZONE 1 - KITI;LT;0;92450;92497;;;LT-92450;LT-92450
ZONE 3 - VISKAS;LT;0;92498;92499;;;LT-92498;LT-92498
ZONE 1 - KITI;LT;0;92500;93000;;;LT-92500;LT-92500
ZONE 1 - KLAIPEDA;LT;0;93001;93008;;;LT-93001;LT-93001
ZONE 3 - VISKAS;LT;0;93009;93011;;;LT-93009;LT-93009
ZONE 3 - VISKAS;LT;0;93012;93017;;;LT-93012;LT-93012
ZONE 3 - VISKAS;LT;0;93018;93099;;;LT-93018;LT-93018
ZONE 1 - KLAIPEDA;LT;0;93100;93100;;;LT-93100;LT-93100
ZONE 3 - VISKAS;LT;0;93101;93127;;;LT-93101;LT-93101
ZONE 3 - VISKAS;LT;0;93128;93145;;;LT-93128;LT-93128
ZONE 1 - KLAIPEDA;LT;0;93146;93290;;;LT-93146;LT-93146
ZONE 1 - KITI;LT;0;93291;94000;;;LT-93291;LT-93291
ZONE 1 - KLAIPEDA;LT;0;94001;94009;;;LT-94001;LT-94001
ZONE 1 - KITI;LT;0;94010;94099;;;LT-94010;LT-94010
ZONE 1 - KLAIPEDA;LT;0;94100;94327;;;LT-94100;LT-94100
ZONE 1 - KITI;LT;0;94328;95000;;;LT-94328;LT-94328
ZONE 1 - KLAIPEDA;LT;0;95001;95006;;;LT-95001;LT-95001
ZONE 1 - KITI;LT;0;95007;95099;;;LT-95007;LT-95007
ZONE 1 - KLAIPEDA;LT;0;95100;95265;;;LT-95100;LT-95100
ZONE 1 - KITI;LT;0;95266;95344;;;LT-95266;LT-95266
ZONE 1 - KLAIPEDA;LT;0;95345;95346;;;LT-95345;LT-95345
ZONE 3 - VISKAS;LT;0;95347;95363;;;LT-95347;LT-95347
ZONE 1 - KLAIPEDA;LT;0;95364;95367;;;LT-95364;LT-95364
ZONE 1 - KITI;LT;0;95368;95386;;;LT-95368;LT-95368
ZONE 3 - VISKAS;LT;0;95387;96000;;;LT-95387;LT-95387
ZONE 2 - KITI;LT;0;96001;96002;;;LT-96001;LT-96001
ZONE 3 - VISKAS;LT;0;96003;96101;;;LT-96003;LT-96003
ZONE 2 - KITI;LT;0;96102;96104;;;LT-96102;LT-96102
ZONE 2 - KITI;LT;0;96105;96150;;;LT-96105;LT-96105
ZONE 2 - KITI;LT;0;96151;96153;;;LT-96151;LT-96151
ZONE 2 - KITI;LT;0;96154;96155;;;LT-96154;LT-96154
ZONE 3 - VISKAS;LT;0;96156;96361;;;LT-96156;LT-96156
ZONE 3 - VISKAS;LT;0;96362;96364;;;LT-96362;LT-96362
ZONE 3 - VISKAS;LT;0;96365;96365;;;LT-96365;LT-96365
ZONE 3 - VISKAS;LT;0;96366;97000;;;LT-96366;LT-96366
ZONE 2 - KITI;LT;0;97001;97001;;;LT-97001;LT-97001
ZONE 3 - VISKAS;LT;0;97002;97044;;;LT-97002;LT-97002
ZONE 3 - VISKAS;LT;0;97045;97099;;;LT-97045;LT-97045
ZONE 2 - KITI;LT;0;97100;97150;;;LT-97100;LT-97100
ZONE 3 - VISKAS;LT;0;97151;97151;;;LT-97151;LT-97151
ZONE 2 - KITI;LT;0;97152;97154;;;LT-97152;LT-97152
ZONE 2 - KITI;LT;0;97155;97156;;;LT-97155;LT-97155
ZONE 3 - VISKAS;LT;0;97157;97179;;;LT-97157;LT-97157
ZONE 2 - KITI;LT;0;97180;97192;;;LT-97180;LT-97180
ZONE 3 - VISKAS;LT;0;97193;97194;;;LT-97193;LT-97193
ZONE 2 - KITI;LT;0;97195;97195;;;LT-97195;LT-97195
ZONE 3 - VISKAS;LT;0;97196;97361;;;LT-97196;LT-97196
ZONE 3 - VISKAS;LT;0;97362;98000;;;LT-97362;LT-97362
ZONE 2 - KITI;LT;0;98001;98001;;;LT-98001;LT-98001
ZONE 3 - VISKAS;LT;0;98002;98107;;;LT-98002;LT-98002
ZONE 2 - KITI;LT;0;98108;98121;;;LT-98108;LT-98108
ZONE 3 - VISKAS;LT;0;98122;98122;;;LT-98122;LT-98122
ZONE 2 - KITI;LT;0;98123;98129;;;LT-98123;LT-98123
ZONE 3 - VISKAS;LT;0;98130;98353;;;LT-98130;LT-98130
ZONE 3 - VISKAS;LT;0;98354;99000;;;LT-98354;LT-98354
ZONE 2 - KITI;LT;0;99001;99001;;;LT-99001;LT-99001
ZONE 3 - VISKAS;LT;0;99002;99103;;;LT-99002;LT-99002
ZONE 2 - KITI;LT;0;99104;99106;;;LT-99104;LT-99104
ZONE 3 - VISKAS;LT;0;99107;99107;;;LT-99107;LT-99107
ZONE 2 - KITI;LT;0;99108;99109;;;LT-99108;LT-99108
ZONE 3 - VISKAS;LT;0;99110;99110;;;LT-99110;LT-99110
ZONE 2 - KITI;LT;0;99111;99111;;;LT-99111;LT-99111
ZONE 2 - KITI;LT;0;99112;99150;;;LT-99112;LT-99112
ZONE 3 - VISKAS;LT;0;99151;99161;;;LT-99151;LT-99151
ZONE 2 - KITI;LT;0;99162;99162;;;LT-99162;LT-99162
ZONE 3 - VISKAS;LT;0;99163;99167;;;LT-99163;LT-99163
ZONE 2 - KITI;LT;0;99168;99185;;;LT-99168;LT-99168
ZONE 3 - VISKAS;LT;0;99186;99188;;;LT-99186;LT-99186
ZONE 2 - KITI;LT;0;99189;99189;;;LT-99189;LT-99189
ZONE 3 - VISKAS;LT;0;99190;99445;;;LT-99190;LT-99190
ZONE 3 - VISKAS;LT;0;99446;99999;;;LT-99446;LT-99446
BALTICS;LV;1;;;;;;
BALTICS;EE;1;;;;;;
EU for B2C;DE;1;;;;;;
EU for B2C;IT;1;;;;;;
EU for B2C;LU;1;;;;;;
EU for B2C;NL;1;;;;;;
EU for B2C;PL;1;;;;;;
EU for B2C;HU;1;;;;;;
EU for B2C;PT;1;;;;;;
EU for B2C;CZ;1;;;;;;
EU for B2C;GB;1;;;;;;
EU for B2C;SE;1;;;;;;
EU for B2C;SI;1;;;;;;
EU for B2C;AT;1;;;;;;
EU for B2C;DK;1;;;;;;
EU for B2C;IE;1;;;;;;
EU for B2C;BE;1;;;;;;
EU for B2C;RO;1;;;;;;
EU for B2C;SK;1;;;;;;
EU for B2C;ES;1;;;;;;
EU for B2C;FI;1;;;;;;
EU for B2C;HR;1;;;;;;
EU for B2C;FR;1;;;;;;
EU for Pickup;DE;1;;;;;;
EU for Pickup;LU;1;;;;;;
EU for Pickup;NL;1;;;;;;
EU for Pickup;PT;1;;;;;;
EU for Pickup;GB;1;;;;;;
EU for Pickup;SE;1;;;;;;
EU for Pickup;DK;1;;;;;;
EU for Pickup;ES;1;;;;;;
EU for Pickup;FI;1;;;;;;
EU for Pickup;FR;1;;;;;;
EU for Pickup;BE;1;;;;;;
EU for Pickup;CZ;1;;;;;;
EU for Pickup;SI;1;;;;;;
EU for Pickup;AT;1;;;;;;
EU for Pickup Return;LV;1;;;;;;
EU for Pickup Return;LT;1;;;;;;
EU for Pickup Return;EE;1;;;;;;
EU for Pickup Return;BE;1;;;;;;
EU for Pickup Return;CZ;1;;;;;;
EU for Pickup Return;FR;1;;;;;;
EU for Pickup Return;DE;1;;;;;;
EU for Pickup Return;NL;1;;;;;;
EU for Pickup Return;PT;1;;;;;;
EU for Pickup Return;GB;1;;;;;;
EU for CR;DE;1;;;;;;
EU for CR;IT;1;;;;;;
EU for CR;LU;1;;;;;;
EU for CR;NL;1;;;;;;
EU for CR;PL;1;;;;;;
EU for CR;HU;1;;;;;;
EU for CR;PT;1;;;;;;
EU for CR;CZ;1;;;;;;
EU for CR;GB;1;;;;;;
EU for CR;SE;1;;;;;;
EU for CR;SI;1;;;;;;
EU for CR;AT;1;;;;;;
EU for CR;DK;1;;;;;;
EU for CR;IE;1;;;;;;
EU for CR;BE;1;;;;;;
EU for CR;RO;1;;;;;;
EU for CR;SK;1;;;;;;
EU for CR;ES;1;;;;;;
EU for CR;FI;1;;;;;;
EU for CR;HR;1;;;;;;
EU for CR;FR;1;;;;;;
EU for CR;BG;1;;;;;;
